{
  "features": [
    {
      "geometry": {
        "coordinates": [
          [
            -121.30698390300168,
            40.56002412600083
          ],
          [
            -121.30690418400168,
            40.560185408000855
          ],
          [
            -121.30666168500173,
            40.56042665600088
          ],
          [
            -121.3065743950017,
            40.560609836000836
          ],
          [
            -121.30652016700171,
            40.560778579000846
          ],
          [
            -121.30637007500168,
            40.56094386200087
          ],
          [
            -121.3062295170017,
            40.56113408900088
          ],
          [
            -121.3061419130017,
            40.561288170000886
          ],
          [
            -121.30606140800171,
            40.561383425000834
          ],
          [
            -121.3060122080017,
            40.5613853830009
          ],
          [
            -121.30591405100168,
            40.56150352400086
          ],
          [
            -121.30579753300171,
            40.561600844000864
          ],
          [
            -121.30558119400169,
            40.561696599000875
          ],
          [
            -121.30556068300169,
            40.56177942300089
          ],
          [
            -121.30526649600166,
            40.56204369000085
          ],
          [
            -121.30524067500173,
            40.56217616100085
          ],
          [
            -121.30520785400164,
            40.56224946400084
          ],
          [
            -121.30516769300174,
            40.56232093500086
          ],
          [
            -121.30502250400171,
            40.562494977000824
          ],
          [
            -121.30480845500166,
            40.56261415900088
          ],
          [
            -121.30465574600171,
            40.56265209300087
          ],
          [
            -121.30454820900168,
            40.56270060600088
          ],
          [
            -121.3044834060017,
            40.56278321700088
          ],
          [
            -121.3044047630017,
            40.56282534300085
          ],
          [
            -121.30438515100167,
            40.56289554500087
          ],
          [
            -121.30433396300167,
            40.562948063000874
          ],
          [
            -121.30408613100168,
            40.56313791500082
          ],
          [
            -121.30397778600168,
            40.563202844000855
          ],
          [
            -121.3032927080017,
            40.563362813000836
          ],
          [
            -121.30315668800168,
            40.563398289000894
          ],
          [
            -121.30305715100171,
            40.563448352000904
          ],
          [
            -121.30267794100169,
            40.56353406100083
          ],
          [
            -121.3026326500017,
            40.563574269000874
          ],
          [
            -121.30238792300173,
            40.56367111900086
          ],
          [
            -121.3022149210017,
            40.56381787100083
          ]
        ],
        "type": "LineString"
      },
      "properties": {
        "feature_id": "{F278D5AC-344D-4BB8-B2F3-3451B9FCF776}",
        "map_method": "Unknown",
        "map_source": "Unknown",
        "name": "Nobles Emigrant Trail",
        "source_date": null,
        "trail_status": "Existing",
        "xy_accuracy": "Unknown"
      },
      "type": "Feature"
    },
    {
      "geometry": {
        "coordinates": [
          [
            -121.31900953800175,
            40.55251294300087
          ],
          [
            -121.31892864100168,
            40.55254221400084
          ],
          [
            -121.3188342310017,
            40.55263969100083
          ],
          [
            -121.31870419800171,
            40.55272537700086
          ],
          [
            -121.31858250600172,
            40.55278100400084
          ],
          [
            -121.31827944400172,
            40.55296911000085
          ],
          [
            -121.31809077700169,
            40.553141076000834
          ],
          [
            -121.31791054600168,
            40.55339337600083
          ],
          [
            -121.31780862800169,
            40.553483158000866
          ],
          [
            -121.31766909000171,
            40.55355368900088
          ],
          [
            -121.31752740200169,
            40.55359431900088
          ],
          [
            -121.3174227960017,
            40.55366245100085
          ],
          [
            -121.31732103800172,
            40.55368461900088
          ],
          [
            -121.3171483810017,
            40.553762265000834
          ],
          [
            -121.3168843970017,
            40.553948543000864
          ],
          [
            -121.31647543100169,
            40.55417241200088
          ],
          [
            -121.31628804700166,
            40.55423367200088
          ],
          [
            -121.31576691000171,
            40.554447000000856
          ],
          [
            -121.31540743400168,
            40.55453687500086
          ],
          [
            -121.31515593800174,
            40.55462003800086
          ],
          [
            -121.3146831760017,
            40.55467153900082
          ],
          [
            -121.31442999800171,
            40.55472429600088
          ],
          [
            -121.31416543600167,
            40.554743858000855
          ],
          [
            -121.31401190700167,
            40.554797858000825
          ],
          [
            -121.31383471900166,
            40.554795272000845
          ],
          [
            -121.31365006400168,
            40.554753950000865
          ],
          [
            -121.31328466300171,
            40.55485162500084
          ],
          [
            -121.31316756800172,
            40.55490507100089
          ],
          [
            -121.3129980510017,
            40.55502165500088
          ],
          [
            -121.3129091630017,
            40.55505132400082
          ],
          [
            -121.31284300600171,
            40.555143354000855
          ],
          [
            -121.31275109100167,
            40.55518423000087
          ],
          [
            -121.31264928600169,
            40.55528809600084
          ],
          [
            -121.31258085700166,
            40.55533368400087
          ],
          [
            -121.31247549000167,
            40.55545021800083
          ],
          [
            -121.31232267800172,
            40.555513572000855
          ],
          [
            -121.31217937300171,
            40.55561552500087
          ],
          [
            -121.31206248500169,
            40.555759502000875
          ],
          [
            -121.31198818900167,
            40.55582505700085
          ],
          [
            -121.31186479300172,
            40.55589215400086
          ],
          [
            -121.31179742100171,
            40.55595662300085
          ],
          [
            -121.31175662700171,
            40.55602346600086
          ],
          [
            -121.31167497200173,
            40.55609640900087
          ],
          [
            -121.31145847500169,
            40.55619062000086
          ],
          [
            -121.31131604000169,
            40.556230612000846
          ],
          [
            -121.31116878800171,
            40.55630775100089
          ],
          [
            -121.3109360900017,
            40.55649213100083
          ],
          [
            -121.31075356600168,
            40.556596445000835
          ],
          [
            -121.31062927700171,
            40.55672098900086
          ],
          [
            -121.31054804700169,
            40.55677075000086
          ],
          [
            -121.31022069500168,
            40.55689261700088
          ],
          [
            -121.30991219200168,
            40.55704922000087
          ],
          [
            -121.30971344200171,
            40.557108502000865
          ],
          [
            -121.30941972200173,
            40.55737018100087
          ],
          [
            -121.3092996600017,
            40.55757461400083
          ],
          [
            -121.30920127400171,
            40.55769562900088
          ],
          [
            -121.3090788410017,
            40.55778859600089
          ],
          [
            -121.30894635500172,
            40.55793219700087
          ],
          [
            -121.30883035000174,
            40.55802796900089
          ],
          [
            -121.30878665000166,
            40.55813740700088
          ],
          [
            -121.3086521930017,
            40.558214156000886
          ],
          [
            -121.3085671490017,
            40.558349693000814
          ],
          [
            -121.30840608100172,
            40.558533677000874
          ],
          [
            -121.30831196600171,
            40.55858380400088
          ],
          [
            -121.30825111600168,
            40.55865373100087
          ],
          [
            -121.30825452900169,
            40.55885335900088
          ],
          [
            -121.30816951600168,
            40.55893226900083
          ],
          [
            -121.30810838200168,
            40.55910371800087
          ],
          [
            -121.30800525600168,
            40.559250680000844
          ],
          [
            -121.30778373800167,
            40.55936542700086
          ],
          [
            -121.30748140100168,
            40.55947064100089
          ],
          [
            -121.30723685400167,
            40.559632466000856
          ],
          [
            -121.30708094200169,
            40.55982780200083
          ],
          [
            -121.30698390300168,
            40.56002412600083
          ]
        ],
        "type": "LineString"
      },
      "properties": {
        "feature_id": "{02F2A299-CEE6-421E-A859-4FA49B107830}",
        "map_method": "Unknown",
        "map_source": "Unknown",
        "name": "Butte Lake to Snag Lake Trail",
        "source_date": null,
        "trail_status": "Existing",
        "xy_accuracy": "Unknown"
      },
      "type": "Feature"
    },
    {
      "geometry": {
        "coordinates": [
          [
            -121.31900953800175,
            40.55251294300087
          ],
          [
            -121.31908711800169,
            40.55238743600088
          ],
          [
            -121.3192054540017,
            40.55228244500086
          ],
          [
            -121.31939378700169,
            40.55192706800086
          ],
          [
            -121.31944909800168,
            40.551628172000854
          ],
          [
            -121.31943994700171,
            40.55146557000085
          ],
          [
            -121.3194052830017,
            40.55134600100087
          ],
          [
            -121.31942163700165,
            40.551179335000825
          ],
          [
            -121.3194037440017,
            40.55108306000087
          ],
          [
            -121.31940986700171,
            40.551000749000835
          ],
          [
            -121.31944992500168,
            40.550912227000836
          ],
          [
            -121.31961113800169,
            40.55081145900085
          ],
          [
            -121.3196954180017,
            40.55072100800084
          ],
          [
            -121.31974448000169,
            40.55070022700087
          ],
          [
            -121.31986543000171,
            40.55059423900088
          ],
          [
            -121.32006431600165,
            40.55047457700086
          ],
          [
            -121.32018125600169,
            40.55036295000089
          ],
          [
            -121.32026888500168,
            40.55030746600085
          ],
          [
            -121.32031589800171,
            40.55024292100085
          ],
          [
            -121.3204740510017,
            40.55010764100087
          ],
          [
            -121.3205735680017,
            40.549932397000894
          ],
          [
            -121.32070905500167,
            40.54981058300088
          ],
          [
            -121.32071167100169,
            40.549780814000826
          ],
          [
            -121.3207378790017,
            40.54977263100085
          ],
          [
            -121.32079828900171,
            40.54966575300087
          ],
          [
            -121.32082197500168,
            40.54957696200086
          ],
          [
            -121.32086733200173,
            40.54954523200087
          ],
          [
            -121.32094452500169,
            40.54938112900085
          ],
          [
            -121.3210869940017,
            40.54919928800087
          ],
          [
            -121.32110745000168,
            40.54913713700088
          ],
          [
            -121.32121341800172,
            40.54899015700087
          ],
          [
            -121.32130082500173,
            40.548796946000834
          ],
          [
            -121.32137978000172,
            40.548498747000856
          ],
          [
            -121.3212979600017,
            40.548262333000814
          ]
        ],
        "type": "LineString"
      },
      "properties": {
        "feature_id": "{620A4923-7C20-446B-B8B4-3D05C5F6EFA4}",
        "map_method": "Unknown",
        "map_source": "Unknown",
        "name": "Cinder Cone Trail",
        "source_date": null,
        "trail_status": "Existing",
        "xy_accuracy": "Unknown"
      },
      "type": "Feature"
    }
  ],
  "type": "FeatureCollection",
  "wayproof": {
    "artifact_format_version": 1,
    "classification": "public_domain",
    "normalized_coordinate_reference_system": "EPSG:4326",
    "retrieved_at": "2026-09-23T17:30:00+00:00",
    "selection": {
      "bounds": "-121.33,40.545,-121.295,40.57",
      "feature_ids": [
        "{F278D5AC-344D-4BB8-B2F3-3451B9FCF776}",
        "{02F2A299-CEE6-421E-A859-4FA49B107830}",
        "{620A4923-7C20-446B-B8B4-3D05C5F6EFA4}"
      ],
      "unit_code": "LAVO"
    },
    "source_coordinate_reference_system": "EPSG:4269",
    "source_id": "source-nps-public-trails-feature-service",
    "source_layer": 0,
    "source_locator": "https://mapservices.nps.gov/arcgis/rest/services/NationalDatasets/NPS_Public_Trails/FeatureServer/0"
  }
}
