{
  "features": [
    {
      "geometry": {
        "coordinates": [
          [
            -119.76552279184926,
            37.96365714908991
          ],
          [
            -119.76539764283577,
            37.96371658110449
          ]
        ],
        "type": "LineString"
      },
      "id": "nps-trail-15187",
      "properties": {
        "feature_id": "nps-trail-15187",
        "nps_feature_id": "{8FB6B6E9-7C52-4274-B212-4682920027B6}",
        "nps_object_id": 15187,
        "route_id": "route-wapama-falls",
        "source_id": "source-nps-public-trails-feature-service",
        "surface": "Wood",
        "trail_name": null,
        "use": "Hiker/Pedestrian"
      },
      "type": "Feature"
    },
    {
      "geometry": {
        "coordinates": [
          [
            -119.7890718819172,
            37.94845772897635
          ],
          [
            -119.7888574568705,
            37.9483559699825
          ],
          [
            -119.78849981679254,
            37.94818487499273
          ],
          [
            -119.78832776675131,
            37.948070021994624
          ],
          [
            -119.78815446870776,
            37.947937497995
          ],
          [
            -119.78802780567327,
            37.94781730599312
          ],
          [
            -119.787933624646,
            37.947713764990425
          ],
          [
            -119.78778530560011,
            37.94752591098383
          ],
          [
            -119.78771173557226,
            37.947389069976566
          ],
          [
            -119.78762828853766,
            37.94720761096587
          ],
          [
            -119.78756952050641,
            37.947019785952854
          ],
          [
            -119.78753115647315,
            37.946786425934086
          ],
          [
            -119.78751519443698,
            37.94649660290849
          ]
        ],
        "type": "LineString"
      },
      "id": "nps-trail-15302",
      "properties": {
        "feature_id": "nps-trail-15302",
        "nps_feature_id": "{59ABC6E5-091B-4AD3-B560-79283EF402B8}",
        "nps_object_id": 15302,
        "route_id": "route-wapama-falls",
        "source_id": "source-nps-public-trails-feature-service",
        "surface": "Unknown",
        "trail_name": null,
        "use": "Hiker/Pedestrian"
      },
      "type": "Feature"
    },
    {
      "geometry": {
        "coordinates": [
          [
            -119.78461201929677,
            37.95798980917957
          ],
          [
            -119.78456571928645,
            37.95796579918071
          ],
          [
            -119.7845437692801,
            37.957941580180076
          ],
          [
            -119.78451489126843,
            37.95788161717662
          ],
          [
            -119.78445858824895,
            37.957792606172504
          ],
          [
            -119.7844134652318,
            37.95770778616798
          ],
          [
            -119.78437345321777,
            37.95764281516491
          ],
          [
            -119.78434224520748,
            37.957597967163046
          ],
          [
            -119.78431525720002,
            37.957571431162556
          ],
          [
            -119.78425459719072,
            37.957576247167395
          ],
          [
            -119.78417340717796,
            37.95758001617363
          ],
          [
            -119.7840989931672,
            37.95759150618012
          ],
          [
            -119.78403443415706,
            37.95759429418508
          ],
          [
            -119.7839405211371,
            37.95755420718821
          ],
          [
            -119.7838706081225,
            37.9575263061907
          ],
          [
            -119.78379902410907,
            37.957510946194475
          ],
          [
            -119.78369423709593,
            37.9575442472052
          ],
          [
            -119.78360604008398,
            37.95756546921355
          ],
          [
            -119.78348784706952,
            37.9576063412259
          ],
          [
            -119.78339324705676,
            37.957628493234814
          ],
          [
            -119.78332116604595,
            37.95763687024085
          ],
          [
            -119.78325243103657,
            37.957652275247256
          ],
          [
            -119.78318816602675,
            37.95765773325242
          ],
          [
            -119.78311521401467,
            37.95765576825757
          ],
          [
            -119.78303754900162,
            37.957651998262826
          ],
          [
            -119.78297350498998,
            37.95764129326653
          ],
          [
            -119.7829108149804,
            37.95764646727153
          ],
          [
            -119.78287388297542,
            37.95765571627508
          ],
          [
            -119.78282172097046,
            37.95768608128166
          ],
          [
            -119.7828489819791,
            37.957722231283036
          ],
          [
            -119.7828933229874,
            37.957731829280675
          ],
          [
            -119.78293541499876,
            37.95777060828121
          ],
          [
            -119.78292842800305,
            37.957817292286016
          ],
          [
            -119.78290930200667,
            37.957875588292794
          ],
          [
            -119.78291039001299,
            37.95792821129756
          ],
          [
            -119.7829223530228,
            37.95799638630299
          ],
          [
            -119.78289182902688,
            37.95807390431232
          ],
          [
            -119.78286484103023,
            37.95814086032047
          ],
          [
            -119.78282373203122,
            37.95820742332961
          ],
          [
            -119.78280141903376,
            37.95826065033611
          ],
          [
            -119.78278279103623,
            37.958307610341826
          ],
          [
            -119.78267376203667,
            37.95846478136426
          ],
          [
            -119.78257373602936,
            37.95854190437861
          ],
          [
            -119.78247710602275,
            37.95861993439284
          ],
          [
            -119.78237994301395,
            37.95868069540549
          ],
          [
            -119.78234018001228,
            37.958722389412216
          ],
          [
            -119.78231479601185,
            37.958753687416966
          ],
          [
            -119.78223775600364,
            37.958791007426
          ],
          [
            -119.78216139899804,
            37.95885008843701
          ],
          [
            -119.78209693999331,
            37.95889954544625
          ],
          [
            -119.78206267599505,
            37.95896264845456
          ],
          [
            -119.78203740799391,
            37.9589883754588
          ],
          [
            -119.78203945399677,
            37.95901008146064
          ],
          [
            -119.78202358999627,
            37.95902798646345
          ],
          [
            -119.78200124999316,
            37.95903256746548
          ],
          [
            -119.78197534298889,
            37.959032012467326
          ],
          [
            -119.78194075798326,
            37.95903213746983
          ],
          [
            -119.7819224539797,
            37.95902675647067
          ],
          [
            -119.78190830497478,
            37.95900453546965
          ],
          [
            -119.7818938119715,
            37.958996401469975
          ],
          [
            -119.7818724219679,
            37.95899522447141
          ],
          [
            -119.78182421796241,
            37.959015837476834
          ],
          [
            -119.78178907295762,
            37.9590235934801
          ],
          [
            -119.78173762394944,
            37.959025126483965
          ],
          [
            -119.78168893994096,
            37.95902008148702
          ],
          [
            -119.78164367693161,
            37.95900310648876
          ],
          [
            -119.78159176792275,
            37.958999758492205
          ],
          [
            -119.78155044791663,
            37.959004697495665
          ],
          [
            -119.78151677991254,
            37.959016578499245
          ],
          [
            -119.78148173490396,
            37.958991805499494
          ],
          [
            -119.78142518889277,
            37.958974712502034
          ],
          [
            -119.78136548988245,
            37.95896887550583
          ],
          [
            -119.78132210587691,
            37.95898237251023
          ],
          [
            -119.78129942887594,
            37.95900592651405
          ],
          [
            -119.78126922687287,
            37.9590220065177
          ],
          [
            -119.78124394486866,
            37.959020670519436
          ],
          [
            -119.78121200386296,
            37.95901662352139
          ],
          [
            -119.7812174748603,
            37.958986091518184
          ],
          [
            -119.78122388385857,
            37.95896163751544
          ],
          [
            -119.78122322685611,
            37.958941680513654
          ],
          [
            -119.78119021384856,
            37.95892255951429
          ],
          [
            -119.7811612508426,
            37.958911954515415
          ],
          [
            -119.78112493083579,
            37.958903930517316
          ],
          [
            -119.78111322683162,
            37.95888437751634
          ],
          [
            -119.7811378548326,
            37.95885884551219
          ],
          [
            -119.78118974083785,
            37.95883072150585
          ],
          [
            -119.78124568784591,
            37.958822096500974
          ],
          [
            -119.78128503185195,
            37.95881901149782
          ],
          [
            -119.78132979986013,
            37.95882676749528
          ],
          [
            -119.78137212786757,
            37.958831561492666
          ],
          [
            -119.78142658187403,
            37.95881116248683
          ],
          [
            -119.78143287687176,
            37.95878243648374
          ],
          [
            -119.78141905086545,
            37.95874758448153
          ],
          [
            -119.7814200978609,
            37.958706990477665
          ],
          [
            -119.7814343268598,
            37.95867749247396
          ],
          [
            -119.78144471085764,
            37.958644300470105
          ],
          [
            -119.78144872885603,
            37.958624653468014
          ],
          [
            -119.7814330078496,
            37.958591198466074
          ],
          [
            -119.78140515584063,
            37.958552987464564
          ],
          [
            -119.78135663282887,
            37.95851968346502
          ],
          [
            -119.78131393982089,
            37.958510519467275
          ],
          [
            -119.78129740081654,
            37.95849609246716
          ],
          [
            -119.78121517379518,
            37.95842733646678
          ],
          [
            -119.7811633527848,
            37.95841060546904
          ],
          [
            -119.78110663277374,
            37.95839451947165
          ],
          [
            -119.78105332776153,
            37.958363967472714
          ],
          [
            -119.78101450075408,
            37.95835429747465
          ],
          [
            -119.78093920174287,
            37.95836326448093
          ],
          [
            -119.78084981372713,
            37.958352763486495
          ],
          [
            -119.78078671571595,
            37.95834500849035
          ],
          [
            -119.7807332217084,
            37.95835465649513
          ],
          [
            -119.78069800570307,
            37.95835842149802
          ],
          [
            -119.78066963770117,
            37.95838151050222
          ],
          [
            -119.78064673169997,
            37.95840329850587
          ],
          [
            -119.78054993768646,
            37.95842249751469
          ],
          [
            -119.78042104366541,
            37.958421819524006
          ],
          [
            -119.78038688466279,
            37.958447092528814
          ],
          [
            -119.78035207965884,
            37.958462163532744
          ],
          [
            -119.78032594865503,
            37.958465529534934
          ],
          [
            -119.78027352364742,
            37.95847391353954
          ],
          [
            -119.78017760963357,
            37.95848870154786
          ],
          [
            -119.78009988162285,
            37.95850524855506
          ],
          [
            -119.78004525961664,
            37.95852829056111
          ],
          [
            -119.77997008760794,
            37.95855836056939
          ],
          [
            -119.77991996560483,
            37.958602220577085
          ],
          [
            -119.77990195860625,
            37.958639597581794
          ],
          [
            -119.77987371560519,
            37.95867044858671
          ],
          [
            -119.77982747260127,
            37.95870126059289
          ],
          [
            -119.77975205959376,
            37.95874222160217
          ],
          [
            -119.77971275959031,
            37.958767875607414
          ],
          [
            -119.77967464758417,
            37.9587681706102
          ],
          [
            -119.779620651575,
            37.95876495361381
          ],
          [
            -119.77958193256754,
            37.95875442261567
          ],
          [
            -119.77949859755252,
            37.95874164862053
          ],
          [
            -119.77942830553977,
            37.95873074662463
          ],
          [
            -119.77938730753172,
            37.958718730626536
          ],
          [
            -119.77934626152435,
            37.95871262762892
          ],
          [
            -119.77916578049492,
            37.95871211764199
          ],
          [
            -119.77886706744812,
            37.95872737966513
          ],
          [
            -119.77872634642684,
            37.958741135676625
          ],
          [
            -119.77857168740769,
            37.95879313469265
          ],
          [
            -119.77845300038965,
            37.95880374870228
          ],
          [
            -119.77827061636418,
            37.95883965571882
          ],
          [
            -119.77815367135133,
            37.95889294573222
          ],
          [
            -119.77806716434101,
            37.95892510074152
          ],
          [
            -119.77798699232899,
            37.95893425074818
          ],
          [
            -119.77791424331808,
            37.95894187375417
          ],
          [
            -119.77781490030166,
            37.95894004176118
          ],
          [
            -119.77769603328387,
            37.95895302877102
          ],
          [
            -119.7775857552677,
            37.958968409780475
          ],
          [
            -119.77751430725944,
            37.958997380788354
          ],
          [
            -119.77742099024744,
            37.95902451279765
          ],
          [
            -119.77732631823461,
            37.959047038806624
          ],
          [
            -119.77728185322869,
            37.959058165810866
          ],
          [
            -119.77725984022685,
            37.959073126813834
          ],
          [
            -119.77725351422738,
            37.95908647081553
          ],
          [
            -119.7772129942284,
            37.95915229582453
          ],
          [
            -119.7771721652257,
            37.959186483830635
          ],
          [
            -119.77711271321904,
            37.959212275837366
          ],
          [
            -119.77693586919432,
            37.95924690285341
          ],
          [
            -119.77688887519004,
            37.95927585585951
          ],
          [
            -119.77672773217968,
            37.959412508883794
          ],
          [
            -119.77661296217157,
            37.95950373290057
          ],
          [
            -119.77656282016754,
            37.9595392729075
          ],
          [
            -119.7765189421663,
            37.959590055915385
          ],
          [
            -119.77647872116316,
            37.959619590921044
          ],
          [
            -119.77644813815861,
            37.95962333392357
          ],
          [
            -119.77642059415324,
            37.95961519292482
          ],
          [
            -119.77635637514199,
            37.959608406928865
          ],
          [
            -119.7762824741289,
            37.959599430933416
          ],
          [
            -119.77622973912045,
            37.959600468937346
          ],
          [
            -119.77619635711945,
            37.959638214943276
          ],
          [
            -119.77617391711917,
            37.95966737994755
          ],
          [
            -119.7761647791215,
            37.95970025795127
          ],
          [
            -119.77613920612025,
            37.959725777955484
          ],
          [
            -119.7760667331177,
            37.959805191968094
          ],
          [
            -119.77604189811714,
            37.95983541497266
          ],
          [
            -119.77601684711611,
            37.959861254976886
          ],
          [
            -119.77596497610956,
            37.959877920982144
          ],
          [
            -119.77592529710431,
            37.959888332986054
          ],
          [
            -119.77589118010128,
            37.95991017399052
          ],
          [
            -119.77586016209982,
            37.95994078799563
          ],
          [
            -119.77584240210084,
            37.95997455299998
          ],
          [
            -119.77580686709702,
            37.95999154500419
          ],
          [
            -119.77575989409372,
            37.96002890001099
          ],
          [
            -119.77571835808826,
            37.9600404500151
          ],
          [
            -119.77568275208748,
            37.960083180021655
          ],
          [
            -119.77567588509066,
            37.96012016802555
          ],
          [
            -119.77563883809675,
            37.96022507103792
          ],
          [
            -119.77559719009605,
            37.96027718204576
          ],
          [
            -119.77554770809049,
            37.9602986100513
          ],
          [
            -119.77547402608393,
            37.96034531306098
          ],
          [
            -119.7754204000807,
            37.960392957069274
          ],
          [
            -119.77536960007816,
            37.960442315077536
          ],
          [
            -119.77536584008095,
            37.96047159908051
          ],
          [
            -119.77536284608426,
            37.960504455083765
          ],
          [
            -119.77534659608612,
            37.960543164088485
          ],
          [
            -119.77530834308081,
            37.96055123009204
          ],
          [
            -119.77528439507849,
            37.960564631095
          ],
          [
            -119.77527952908297,
            37.960609900099534
          ],
          [
            -119.77525368708045,
            37.96062465810278
          ],
          [
            -119.77522813407711,
            37.96063144510523
          ],
          [
            -119.77518747806997,
            37.96062709610779
          ],
          [
            -119.77511738805504,
            37.9605965741101
          ],
          [
            -119.77501035303474,
            37.96057152911554
          ],
          [
            -119.77491399802513,
            37.960623610127385
          ],
          [
            -119.77484617801619,
            37.96064189113399
          ],
          [
            -119.77478640501239,
            37.960692926143054
          ],
          [
            -119.77473165900585,
            37.960713346148914
          ],
          [
            -119.7746856019994,
            37.96072231515305
          ],
          [
            -119.77455307499162,
            37.96084131417366
          ],
          [
            -119.77448193598151,
            37.96085373718002
          ],
          [
            -119.77441960897788,
            37.96091005818974
          ],
          [
            -119.77437334997335,
            37.960935680195476
          ],
          [
            -119.77432927696545,
            37.96092920419807
          ],
          [
            -119.77427210695834,
            37.96094793420391
          ],
          [
            -119.77423222195249,
            37.96095385620738
          ],
          [
            -119.77417248294093,
            37.96093773621025
          ],
          [
            -119.77411848493195,
            37.96093600121399
          ],
          [
            -119.77405945792344,
            37.9609456902192
          ],
          [
            -119.77398722491287,
            37.96095555222536
          ],
          [
            -119.77393042590509,
            37.96096809423064
          ],
          [
            -119.77388201789842,
            37.960978536235125
          ],
          [
            -119.77382351088825,
            37.96097307423889
          ],
          [
            -119.7737726398787,
            37.96096190524156
          ],
          [
            -119.77372449287056,
            37.960959435244796
          ],
          [
            -119.77368977986629,
            37.96097126324844
          ],
          [
            -119.77368257087103,
            37.961021832253635
          ],
          [
            -119.77366113787191,
            37.961059834258684
          ],
          [
            -119.77360445386748,
            37.961101307266645
          ],
          [
            -119.77353713086073,
            37.96113759327484
          ],
          [
            -119.77347726885489,
            37.96117112228228
          ],
          [
            -119.77339539384414,
            37.96119310129026
          ],
          [
            -119.77331758083378,
            37.961213170297775
          ],
          [
            -119.77324312082202,
            37.96121619430349
          ],
          [
            -119.77312907280728,
            37.96124912631483
          ],
          [
            -119.7730489417971,
            37.961273067322864
          ],
          [
            -119.7729564247852,
            37.9613008123321
          ],
          [
            -119.77281308576687,
            37.96134343034646
          ],
          [
            -119.77273363075852,
            37.96138276735591
          ],
          [
            -119.77269266375565,
            37.96141555336188
          ],
          [
            -119.77263026775518,
            37.96149902737411
          ],
          [
            -119.7725958847561,
            37.961555244381806
          ],
          [
            -119.7725598207561,
            37.9616059043891
          ],
          [
            -119.77251687375391,
            37.961647403396064
          ],
          [
            -119.77248547875308,
            37.96168423840175
          ],
          [
            -119.77246600375314,
            37.96171202340572
          ],
          [
            -119.77247172076156,
            37.961776382411266
          ],
          [
            -119.77246077676558,
            37.961826486416655
          ],
          [
            -119.77243054176628,
            37.96187494542334
          ],
          [
            -119.77241492476834,
            37.96191496842817
          ],
          [
            -119.77239791977036,
            37.96195568343311
          ],
          [
            -119.7723745607711,
            37.96199491543843
          ],
          [
            -119.7723635597726,
            37.96202358244192
          ],
          [
            -119.77236397177707,
            37.962061449445386
          ],
          [
            -119.77234718177803,
            37.962093246449506
          ],
          [
            -119.7723132067747,
            37.96211207245374
          ],
          [
            -119.77226403976849,
            37.96212755945873
          ],
          [
            -119.77222576576311,
            37.962134945462196
          ],
          [
            -119.77219583076167,
            37.96216439146706
          ],
          [
            -119.7721581647588,
            37.96219266347241
          ],
          [
            -119.7721053487553,
            37.96223662748035
          ],
          [
            -119.77205772374964,
            37.96225434248541
          ],
          [
            -119.77202717074813,
            37.96228427049039
          ],
          [
            -119.77197681074476,
            37.962325675497866
          ],
          [
            -119.77194970974297,
            37.96234806550193
          ],
          [
            -119.77191714673995,
            37.9623685055062
          ],
          [
            -119.77184890973355,
            37.96240885151487
          ],
          [
            -119.77180030072996,
            37.9624457515218
          ],
          [
            -119.77177530773217,
            37.96250006352861
          ],
          [
            -119.77171296672586,
            37.96253290153621
          ],
          [
            -119.77166035572084,
            37.96256334254282
          ],
          [
            -119.77156586270931,
            37.96259641755271
          ],
          [
            -119.77146428169587,
            37.962623389562594
          ],
          [
            -119.77138476068482,
            37.96263948256985
          ],
          [
            -119.7712928186737,
            37.962672387579595
          ],
          [
            -119.77122743166437,
            37.96268352358536
          ],
          [
            -119.7711416116551,
            37.962724509595375
          ],
          [
            -119.77106825864767,
            37.96276272960426
          ],
          [
            -119.77100412864,
            37.96278721761119
          ],
          [
            -119.77091388662582,
            37.962791383618125
          ],
          [
            -119.77082122661291,
            37.96280964062652
          ],
          [
            -119.7707486776025,
            37.96282193063296
          ],
          [
            -119.77067673959048,
            37.962818905637896
          ],
          [
            -119.77060171958036,
            37.962836647644984
          ],
          [
            -119.7705215895691,
            37.96285221765228
          ],
          [
            -119.77044649755949,
            37.96287482965977
          ],
          [
            -119.7703468545471,
            37.96290790567008
          ],
          [
            -119.77027455753765,
            37.96292736767715
          ],
          [
            -119.77019325152641,
            37.96294495168464
          ],
          [
            -119.77009786051225,
            37.96295681469268
          ],
          [
            -119.76999584049864,
            37.962982255702435
          ],
          [
            -119.76992271649075,
            37.963016629710985
          ],
          [
            -119.76987852048394,
            37.963020049714494
          ],
          [
            -119.76985386148378,
            37.96305300971932
          ],
          [
            -119.76978675347787,
            37.96309630672818
          ],
          [
            -119.76973160747147,
            37.96311858773424
          ],
          [
            -119.76967386146342,
            37.96312999773949
          ],
          [
            -119.76960816145254,
            37.96312816974411
          ],
          [
            -119.76954925244208,
            37.96312095574774
          ],
          [
            -119.76950639443413,
            37.96311242675005
          ],
          [
            -119.7694428464256,
            37.963128089756104
          ],
          [
            -119.76938806641753,
            37.96313560976078
          ],
          [
            -119.76932780940905,
            37.96314651276621
          ],
          [
            -119.76923584439736,
            37.963174712775455
          ],
          [
            -119.76918659739127,
            37.96319125678058
          ],
          [
            -119.76915584738785,
            37.9632051017841
          ],
          [
            -119.76909643938104,
            37.96322939779066
          ],
          [
            -119.768998537373,
            37.96329786580409
          ],
          [
            -119.76891979436422,
            37.96333218181296
          ],
          [
            -119.76885560335393,
            37.96333387581777
          ],
          [
            -119.76876247633886,
            37.963334407824604
          ],
          [
            -119.7687049893293,
            37.96333229582857
          ],
          [
            -119.76863768831667,
            37.96331781383214
          ],
          [
            -119.76852954029606,
            37.96329209083767
          ],
          [
            -119.76844833228209,
            37.96328543784295
          ],
          [
            -119.76839459427363,
            37.96328793384708
          ],
          [
            -119.76833271826536,
            37.963303200853
          ],
          [
            -119.76828278125774,
            37.963307938857035
          ],
          [
            -119.76821451524619,
            37.963303795861606
          ],
          [
            -119.76812825023185,
            37.9633016868677
          ],
          [
            -119.76801426621307,
            37.96329942487578
          ],
          [
            -119.76795382120245,
            37.96329250187952
          ],
          [
            -119.7678966471908,
            37.96327218888182
          ],
          [
            -119.7678111691754,
            37.963259483886844
          ],
          [
            -119.76774594716389,
            37.96325156689084
          ],
          [
            -119.76768155715234,
            37.963242071894676
          ],
          [
            -119.76757482513459,
            37.96323897690214
          ],
          [
            -119.76751990812542,
            37.96323681490596
          ],
          [
            -119.76746829011897,
            37.9632533239112
          ],
          [
            -119.76736883310225,
            37.96324923191806
          ],
          [
            -119.76728608208748,
            37.963237686923
          ],
          [
            -119.76725234707908,
            37.96321225992309
          ],
          [
            -119.76727001807996,
            37.963195411920275
          ],
          [
            -119.76729670908166,
            37.96317280491625
          ],
          [
            -119.76732173108329,
            37.96315170591248
          ],
          [
            -119.76735972008888,
            37.96314644590923
          ],
          [
            -119.76739344709156,
            37.963122584904575
          ],
          [
            -119.76733116708117,
            37.96311985990886
          ],
          [
            -119.76724263706706,
            37.963122514915554
          ],
          [
            -119.76720485306105,
            37.963123776918415
          ],
          [
            -119.76717730805505,
            37.96311074791922
          ],
          [
            -119.76712959204812,
            37.96311764292327
          ],
          [
            -119.76710391904471,
            37.96312448692581
          ],
          [
            -119.76707257003838,
            37.96311402592714
          ],
          [
            -119.76703700103154,
            37.96310463292883
          ],
          [
            -119.76703340402742,
            37.963074574926324
          ],
          [
            -119.76701713502439,
            37.96307081492713
          ],
          [
            -119.76699457002219,
            37.96308358392998
          ],
          [
            -119.76696274202206,
            37.963127403936305
          ],
          [
            -119.76692623501964,
            37.96315768794181
          ],
          [
            -119.76686433401424,
            37.96319785195
          ]
        ],
        "type": "LineString"
      },
      "id": "nps-trail-15865",
      "properties": {
        "feature_id": "nps-trail-15865",
        "nps_feature_id": "{E54454D3-FDF2-4360-9309-F90E51E03A64}",
        "nps_object_id": 15865,
        "route_id": "route-wapama-falls",
        "source_id": "source-nps-public-trails-feature-service",
        "surface": "Unknown",
        "trail_name": null,
        "use": "Hiker/Pedestrian"
      },
      "type": "Feature"
    },
    {
      "geometry": {
        "coordinates": [
          [
            -119.7656084028576,
            37.963608995079234
          ],
          [
            -119.76552279184926,
            37.96365714908991
          ]
        ],
        "type": "LineString"
      },
      "id": "nps-trail-16595",
      "properties": {
        "feature_id": "nps-trail-16595",
        "nps_feature_id": "{52FF37F2-FE49-46E3-8B0B-F1F4AB400896}",
        "nps_object_id": 16595,
        "route_id": "route-wapama-falls",
        "source_id": "source-nps-public-trails-feature-service",
        "surface": "Masonry/Stone",
        "trail_name": null,
        "use": "Hiker/Pedestrian"
      },
      "type": "Feature"
    },
    {
      "geometry": {
        "coordinates": [
          [
            -119.76644190495595,
            37.963288007989014
          ],
          [
            -119.7663777989449,
            37.96328237099314
          ],
          [
            -119.76633654893816,
            37.96328226899613
          ],
          [
            -119.76630750293549,
            37.963299954999904
          ],
          [
            -119.76630220693491,
            37.96330256700053
          ]
        ],
        "type": "LineString"
      },
      "id": "nps-trail-16728",
      "properties": {
        "feature_id": "nps-trail-16728",
        "nps_feature_id": "{DCB1DD5C-9B28-446B-B049-DA2DD94D950C}",
        "nps_object_id": 16728,
        "route_id": "route-wapama-falls",
        "source_id": "source-nps-public-trails-feature-service",
        "surface": "Masonry/Stone",
        "trail_name": null,
        "use": "Hiker/Pedestrian"
      },
      "type": "Feature"
    },
    {
      "geometry": {
        "coordinates": [
          [
            -119.76620204092437,
            37.96335196101236
          ],
          [
            -119.76613649391744,
            37.963384284020115
          ],
          [
            -119.76609392791566,
            37.963428444027244
          ]
        ],
        "type": "LineString"
      },
      "id": "nps-trail-16804",
      "properties": {
        "feature_id": "nps-trail-16804",
        "nps_feature_id": "{5F13EE2D-DE2E-4372-898E-0465B170C5B8}",
        "nps_object_id": 16804,
        "route_id": "route-wapama-falls",
        "source_id": "source-nps-public-trails-feature-service",
        "surface": "Masonry/Stone",
        "trail_name": null,
        "use": "Hiker/Pedestrian"
      },
      "type": "Feature"
    },
    {
      "geometry": {
        "coordinates": [
          [
            -119.78967277518232,
            37.94990279906598
          ],
          [
            -119.78970746519641,
            37.9499756610702
          ],
          [
            -119.78967589120128,
            37.95006255408051
          ],
          [
            -119.7897056892255,
            37.95022971209371
          ],
          [
            -119.78971899824582,
            37.950386339107204
          ],
          [
            -119.78963929725357,
            37.95056517612952
          ],
          [
            -119.78953694124593,
            37.950642807144064
          ],
          [
            -119.78944907123487,
            37.95067029215303
          ],
          [
            -119.78938682123105,
            37.95072448716256
          ],
          [
            -119.78936959823656,
            37.95079675717044
          ],
          [
            -119.78937310524954,
            37.95090339718005
          ],
          [
            -119.78920163523358,
            37.95100655020201
          ],
          [
            -119.78907207722142,
            37.95108352821851
          ],
          [
            -119.78902096522114,
            37.95115267022862
          ],
          [
            -119.78899636824116,
            37.951359889249545
          ],
          [
            -119.78908127328049,
            37.95158022326363
          ],
          [
            -119.78905496129248,
            37.9517203112785
          ],
          [
            -119.78895319728514,
            37.95180005829327
          ],
          [
            -119.7888826662807,
            37.951860659303954
          ],
          [
            -119.78886238228321,
            37.95191060331004
          ],
          [
            -119.78886873330039,
            37.95205014432246
          ],
          [
            -119.78883712830944,
            37.95217279833607
          ],
          [
            -119.78874593531373,
            37.95233780735792
          ],
          [
            -119.78862984231073,
            37.95247447937895
          ],
          [
            -119.78856966731263,
            37.952575013392604
          ],
          [
            -119.78851306130942,
            37.9526270734015
          ],
          [
            -119.78851540932322,
            37.952743092412035
          ],
          [
            -119.7885131423315,
            37.95281759841905
          ],
          [
            -119.78849863133857,
            37.9528986854276
          ],
          [
            -119.78849043534275,
            37.95294635443261
          ],
          [
            -119.78847531934555,
            37.952991617437824
          ],
          [
            -119.78844396534694,
            37.95304809244532
          ],
          [
            -119.7884163283483,
            37.953098159451976
          ],
          [
            -119.78841188635312,
            37.95314617845674
          ],
          [
            -119.78844457836497,
            37.953202545459526
          ],
          [
            -119.78845207637579,
            37.953285400466626
          ],
          [
            -119.78843386438473,
            37.95338806647745
          ],
          [
            -119.7883887953848,
            37.953452087486596
          ],
          [
            -119.78831785539096,
            37.953604463505826
          ],
          [
            -119.78823601640036,
            37.9538001275298
          ],
          [
            -119.78818487040557,
            37.95391720554434
          ],
          [
            -119.78815079642851,
            37.954162703569416
          ],
          [
            -119.78807881643837,
            37.95434917059189
          ],
          [
            -119.78800068843853,
            37.954459837607764
          ],
          [
            -119.78790537843715,
            37.9545816566259
          ],
          [
            -119.78782696043676,
            37.95468844464149
          ],
          [
            -119.78777426343649,
            37.95475984365187
          ],
          [
            -119.78772822343508,
            37.95481213366002
          ],
          [
            -119.78767717243545,
            37.95488719967068
          ],
          [
            -119.78764348243915,
            37.954966114680424
          ],
          [
            -119.78756583445248,
            37.9551899707067
          ],
          [
            -119.78752947547375,
            37.95542420173092
          ],
          [
            -119.78758076049851,
            37.9555662537403
          ],
          [
            -119.78762289051934,
            37.95568686474836
          ],
          [
            -119.78764817953207,
            37.95576118675337
          ],
          [
            -119.78765511854112,
            37.9558296697592
          ],
          [
            -119.78768809455948,
            37.95594169276711
          ],
          [
            -119.78767573756289,
            37.95598835577235
          ],
          [
            -119.78765088456268,
            37.956021806777215
          ],
          [
            -119.78761689156102,
            37.95605481678277
          ],
          [
            -119.78752384054957,
            37.956086593792406
          ],
          [
            -119.78740425053921,
            37.956165081808365
          ],
          [
            -119.78732752853503,
            37.95623611782052
          ],
          [
            -119.78727215253528,
            37.95631649483191
          ],
          [
            -119.78724223954491,
            37.95644130984557
          ],
          [
            -119.78718089854358,
            37.95651605585693
          ],
          [
            -119.78715797554979,
            37.956601703866525
          ],
          [
            -119.78714404956457,
            37.95674874888111
          ],
          [
            -119.78713402857484,
            37.956851309891306
          ],
          [
            -119.78705740656775,
            37.95689744290108
          ],
          [
            -119.78697467055812,
            37.956930657910206
          ],
          [
            -119.78690875655023,
            37.956955265917244
          ],
          [
            -119.78684843654332,
            37.95698018092391
          ],
          [
            -119.7867646385369,
            37.95704222993572
          ],
          [
            -119.78671529053341,
            37.957081228942926
          ],
          [
            -119.78665952953072,
            37.95713618695203
          ],
          [
            -119.78659416152622,
            37.957188876961645
          ],
          [
            -119.78651903151857,
            37.957228533970756
          ],
          [
            -119.78644150250865,
            37.957251885978586
          ],
          [
            -119.78636538649712,
            37.95725899598472
          ],
          [
            -119.78628549148327,
            37.95725161998987
          ],
          [
            -119.78613877445784,
            37.957238076999246
          ],
          [
            -119.78598256243177,
            37.95723212701006
          ],
          [
            -119.78590129441756,
            37.95722330101515
          ],
          [
            -119.78576872439236,
            37.957191948021894
          ],
          [
            -119.78568346937858,
            37.957192467028165
          ],
          [
            -119.7856109793712,
            37.95723068803697
          ],
          [
            -119.78554783036749,
            37.957287184046784
          ],
          [
            -119.7855101053721,
            37.95737985005808
          ],
          [
            -119.78547214537873,
            37.957490320071
          ],
          [
            -119.7854577703882,
            37.957592020081435
          ],
          [
            -119.78541677239437,
            37.9577027810946
          ],
          [
            -119.7853110783886,
            37.95780149311142
          ],
          [
            -119.78525949438571,
            37.9578489571195
          ],
          [
            -119.78519015837816,
            37.95788099012753
          ],
          [
            -119.78511079636897,
            37.95791286813625
          ],
          [
            -119.78501121835434,
            37.957926512144724
          ],
          [
            -119.78490962733777,
            37.95792562915204
          ],
          [
            -119.78481243832478,
            37.957950414161374
          ],
          [
            -119.78473448631485,
            37.95797372016921
          ],
          [
            -119.78461201929677,
            37.95798980917957
          ]
        ],
        "type": "LineString"
      },
      "id": "nps-trail-20767",
      "properties": {
        "feature_id": "nps-trail-20767",
        "nps_feature_id": "{C2E8B608-C416-412A-90BA-2D973B18DD50}",
        "nps_object_id": 20767,
        "route_id": "route-wapama-falls",
        "source_id": "source-nps-public-trails-feature-service",
        "surface": "Unknown",
        "trail_name": null,
        "use": "Hiker/Pedestrian"
      },
      "type": "Feature"
    },
    {
      "geometry": {
        "coordinates": [
          [
            -119.76630220693491,
            37.96330256700053
          ],
          [
            -119.76620204092437,
            37.96335196101236
          ]
        ],
        "type": "LineString"
      },
      "id": "nps-trail-20830",
      "properties": {
        "feature_id": "nps-trail-20830",
        "nps_feature_id": "{68D792F3-A6FA-4322-B6E3-13D49385512A}",
        "nps_object_id": 20830,
        "route_id": "route-wapama-falls",
        "source_id": "source-nps-public-trails-feature-service",
        "surface": "Wood",
        "trail_name": null,
        "use": "Hiker/Pedestrian"
      },
      "type": "Feature"
    },
    {
      "geometry": {
        "coordinates": [
          [
            -119.78967277518232,
            37.94990279906598
          ],
          [
            -119.78954820412797,
            37.94960841104788
          ],
          [
            -119.78941643906617,
            37.949260133025334
          ],
          [
            -119.78910462593285,
            37.948546697982174
          ],
          [
            -119.7890718819172,
            37.94845772897635
          ]
        ],
        "type": "LineString"
      },
      "id": "nps-trail-20889",
      "properties": {
        "feature_id": "nps-trail-20889",
        "nps_feature_id": "{768DFDDF-7856-43BC-9FB6-CE36BB651EA4}",
        "nps_object_id": 20889,
        "route_id": "route-wapama-falls",
        "source_id": "source-nps-public-trails-feature-service",
        "surface": "Unknown",
        "trail_name": null,
        "use": "Hiker/Pedestrian"
      },
      "type": "Feature"
    },
    {
      "geometry": {
        "coordinates": [
          [
            -119.76609392791566,
            37.963428444027244
          ],
          [
            -119.7660199199112,
            37.96349412803869
          ],
          [
            -119.7656084028576,
            37.963608995079234
          ]
        ],
        "type": "LineString"
      },
      "id": "nps-trail-21750",
      "properties": {
        "feature_id": "nps-trail-21750",
        "nps_feature_id": "{8D7D44F2-9B0C-415F-8F71-C7157C28C983}",
        "nps_object_id": 21750,
        "route_id": "route-wapama-falls",
        "source_id": "source-nps-public-trails-feature-service",
        "surface": "Wood",
        "trail_name": null,
        "use": "Hiker/Pedestrian"
      },
      "type": "Feature"
    },
    {
      "geometry": {
        "coordinates": [
          [
            -119.76686433401424,
            37.96319785195
          ],
          [
            -119.76676264500512,
            37.9632618849633
          ],
          [
            -119.7666796829956,
            37.963295955972484
          ],
          [
            -119.76658315997969,
            37.96329423497931
          ],
          [
            -119.76644190495595,
            37.963288007989014
          ]
        ],
        "type": "LineString"
      },
      "id": "nps-trail-22149",
      "properties": {
        "feature_id": "nps-trail-22149",
        "nps_feature_id": "{D4CFF617-21A9-47AF-B804-61867517D5E1}",
        "nps_object_id": 22149,
        "route_id": "route-wapama-falls",
        "source_id": "source-nps-public-trails-feature-service",
        "surface": "Wood",
        "trail_name": null,
        "use": "Hiker/Pedestrian"
      },
      "type": "Feature"
    },
    {
      "geometry": {
        "coordinates": [
          [
            -119.82006241856251,
            37.91916326102504
          ],
          [
            -119.82004038355373,
            37.91911840002247
          ],
          [
            -119.82000736854302,
            37.91907218902061
          ],
          [
            -119.8199730185236,
            37.91895257301208
          ],
          [
            -119.81996054851108,
            37.91886104000454
          ],
          [
            -119.81992272448855,
            37.91871944099422
          ],
          [
            -119.81989993647564,
            37.91863988098857
          ],
          [
            -119.8198599454612,
            37.91857116698513
          ],
          [
            -119.81978028443694,
            37.918473410981896
          ],
          [
            -119.81971724741926,
            37.91840883998051
          ],
          [
            -119.81961218339782,
            37.91837127798469
          ],
          [
            -119.8195329433824,
            37.918348824988314
          ],
          [
            -119.81946909336237,
            37.918265299985265
          ],
          [
            -119.81943221634909,
            37.91820251298215
          ],
          [
            -119.81938763333451,
            37.91813867197953
          ],
          [
            -119.81927192129868,
            37.91799134397431
          ],
          [
            -119.81916018427114,
            37.917910202974916
          ],
          [
            -119.81903512324105,
            37.917825631976186
          ],
          [
            -119.81885680620293,
            37.917746271981834
          ],
          [
            -119.81869816716504,
            37.91764087598359
          ],
          [
            -119.81845365709755,
            37.91740075197921
          ],
          [
            -119.81830164007273,
            37.917399592990115
          ],
          [
            -119.81818562106155,
            37.91746602600469
          ],
          [
            -119.81811833805949,
            37.917542598016574
          ],
          [
            -119.81806761505487,
            37.917573997023176
          ],
          [
            -119.81801947704945,
            37.91759472702859
          ],
          [
            -119.81796144604097,
            37.917602610033505
          ],
          [
            -119.81788908102892,
            37.917600300038515
          ],
          [
            -119.81775890200568,
            37.917581985046304
          ],
          [
            -119.81763620798452,
            37.91757125905425
          ],
          [
            -119.8175260439652,
            37.917559120061064
          ],
          [
            -119.81738906894273,
            37.91755720207083
          ],
          [
            -119.81723062891734,
            37.91756043208261
          ],
          [
            -119.81708465889444,
            37.91756723709383
          ],
          [
            -119.81703111788445,
            37.9175560610967
          ],
          [
            -119.81699217787926,
            37.917565593100385
          ],
          [
            -119.81689902186278,
            37.917553758106095
          ],
          [
            -119.81682137285037,
            37.91755547211183
          ],
          [
            -119.81676044284477,
            37.917592826119716
          ],
          [
            -119.81667420983386,
            37.91761945812845
          ],
          [
            -119.81658582481987,
            37.91762287913515
          ],
          [
            -119.81648143780362,
            37.91762844214323
          ],
          [
            -119.81641067079184,
            37.91762629114818
          ],
          [
            -119.81636177978399,
            37.91762693415181
          ],
          [
            -119.81632674077792,
            37.91762399515408
          ],
          [
            -119.8163097747715,
            37.91759194915234
          ],
          [
            -119.81630150676715,
            37.917566300150575
          ],
          [
            -119.81628844076262,
            37.91754515614956
          ],
          [
            -119.81625943475638,
            37.917532155150454
          ],
          [
            -119.81623833474902,
            37.91749767914879
          ],
          [
            -119.8162090737422,
            37.9174799341493
          ],
          [
            -119.81616618573531,
            37.91748066915251
          ],
          [
            -119.81613307672951,
            37.917477343154566
          ],
          [
            -119.81608044172205,
            37.91748675415926
          ],
          [
            -119.81600239070866,
            37.917480849164356
          ],
          [
            -119.81583916467834,
            37.91744753117315
          ],
          [
            -119.81578833366952,
            37.91744270817637
          ],
          [
            -119.815653290648,
            37.9174461681865
          ],
          [
            -119.81551954762436,
            37.917429832194706
          ],
          [
            -119.81541976760374,
            37.91739146719838
          ],
          [
            -119.81533297058783,
            37.917375494203256
          ],
          [
            -119.81528958458274,
            37.91739272620793
          ],
          [
            -119.81520882157005,
            37.917396667214184
          ],
          [
            -119.81513868655755,
            37.917386755218374
          ],
          [
            -119.81507830054736,
            37.917383190222374
          ],
          [
            -119.81503003253984,
            37.91738593122613
          ],
          [
            -119.81499449653641,
            37.91740666023066
          ],
          [
            -119.8149548505304,
            37.91740972823383
          ],
          [
            -119.81492732952393,
            37.91739309123424
          ],
          [
            -119.81492490752062,
            37.9173676102321
          ],
          [
            -119.81491713951536,
            37.91733294122946
          ],
          [
            -119.81485690150382,
            37.9173175422324
          ],
          [
            -119.8148085904938,
            37.91729874923419
          ],
          [
            -119.8148042684895,
            37.9172676152316
          ],
          [
            -119.81482206048867,
            37.917235513227375
          ],
          [
            -119.81483641848754,
            37.9172056852236
          ],
          [
            -119.81482264148316,
            37.91718699222286
          ],
          [
            -119.81477794347552,
            37.91718396122582
          ],
          [
            -119.81474687246774,
            37.9171603792259
          ],
          [
            -119.81473465146387,
            37.91714381622523
          ],
          [
            -119.8146928614562,
            37.917136187227584
          ],
          [
            -119.81465404744648,
            37.917106659227656
          ],
          [
            -119.81460880243277,
            37.91705179022588
          ],
          [
            -119.81459568842416,
            37.91699580922165
          ],
          [
            -119.81461702341811,
            37.916913317212504
          ],
          [
            -119.81463200141464,
            37.916862118206716
          ],
          [
            -119.81466669541557,
            37.916821412200456
          ],
          [
            -119.81470755941912,
            37.91679489419502
          ],
          [
            -119.81476818342323,
            37.916745092186034
          ],
          [
            -119.81480090342563,
            37.91671967818134
          ],
          [
            -119.81481170942558,
            37.9167043421791
          ],
          [
            -119.81480240042129,
            37.91668023817757
          ],
          [
            -119.81477822541618,
            37.916669974178404
          ],
          [
            -119.81475507041188,
            37.9166652761796
          ],
          [
            -119.81474789440868,
            37.9166474561785
          ],
          [
            -119.81476257140922,
            37.916631728175986
          ],
          [
            -119.8147870654108,
            37.91661088017226
          ],
          [
            -119.8148170144123,
            37.916581954167434
          ],
          [
            -119.81486033641555,
            37.916548976161295
          ],
          [
            -119.81488370841484,
            37.91651010315595
          ],
          [
            -119.81497383442147,
            37.91644097714306
          ],
          [
            -119.81499997342125,
            37.91640242513763
          ],
          [
            -119.814990744414,
            37.916352742133704
          ],
          [
            -119.81497858540797,
            37.91631756513136
          ],
          [
            -119.81493734839893,
            37.91629732813248
          ],
          [
            -119.81488493938947,
            37.91628892613552
          ],
          [
            -119.81485151838199,
            37.91627104313629
          ],
          [
            -119.8148464303764,
            37.916229532132824
          ],
          [
            -119.81485263037217,
            37.916184545128196
          ],
          [
            -119.81489162637612,
            37.9161638261235
          ],
          [
            -119.81492036337866,
            37.9161456891197
          ],
          [
            -119.81492040437622,
            37.91612422611773
          ],
          [
            -119.81489340036782,
            37.916089725116485
          ],
          [
            -119.81485300735856,
            37.916066502117296
          ],
          [
            -119.81483460835373,
            37.916050511117156
          ],
          [
            -119.81483906335136,
            37.916023551114336
          ],
          [
            -119.81487854135446,
            37.915994778108825
          ],
          [
            -119.81492866435701,
            37.91594637110071
          ],
          [
            -119.81495223335772,
            37.915919406096556
          ],
          [
            -119.81495384435414,
            37.9158865760934
          ],
          [
            -119.81491696134525,
            37.91586149009376
          ],
          [
            -119.81493547334404,
            37.91582444308898
          ],
          [
            -119.81493773034121,
            37.9157973430863
          ],
          [
            -119.81492043133363,
            37.91575587008378
          ],
          [
            -119.81489507132589,
            37.91572430308269
          ],
          [
            -119.81484782031467,
            37.915693897083315
          ],
          [
            -119.814822193306,
            37.915654990081535
          ],
          [
            -119.81482224030204,
            37.915620447078396
          ],
          [
            -119.81488137830847,
            37.915593076071595
          ],
          [
            -119.81493538531375,
            37.915562778064846
          ],
          [
            -119.81497935831622,
            37.91552230405793
          ],
          [
            -119.81498612431267,
            37.915481948053724
          ],
          [
            -119.81498613030911,
            37.9154511900509
          ],
          [
            -119.8149723963028,
            37.91541585804861
          ],
          [
            -119.81492031929066,
            37.91538407604944
          ],
          [
            -119.81489415128127,
            37.91533951004725
          ],
          [
            -119.81484357826952,
            37.91530888804808
          ],
          [
            -119.81480964126102,
            37.915283236048204
          ],
          [
            -119.81478297225168,
            37.915239542046116
          ],
          [
            -119.81474462124139,
            37.91520440004566
          ],
          [
            -119.81471837823332,
            37.91517195704455
          ],
          [
            -119.81470957522967,
            37.91515271104339
          ],
          [
            -119.81472881323093,
            37.915136216040466
          ],
          [
            -119.81475109923163,
            37.91511098103657
          ],
          [
            -119.81474254722787,
            37.91509037703524
          ],
          [
            -119.81471644222134,
            37.91507074403537
          ],
          [
            -119.81467799720976,
            37.91502427603387
          ],
          [
            -119.81463191019805,
            37.91498829203388
          ],
          [
            -119.81462903919487,
            37.9149645650319
          ],
          [
            -119.81463042519293,
            37.91494556603003
          ],
          [
            -119.81460416618629,
            37.914925157030055
          ],
          [
            -119.81458099517988,
            37.9149021370296
          ],
          [
            -119.81456809217285,
            37.91485965302662
          ],
          [
            -119.81458586217175,
            37.914825357022174
          ],
          [
            -119.8145903671704,
            37.914806924020134
          ],
          [
            -119.81457542816617,
            37.91479146001979
          ],
          [
            -119.81455292616059,
            37.91477461301987
          ],
          [
            -119.81451294314999,
            37.914739277019514
          ],
          [
            -119.81448154214151,
            37.91471006701913
          ],
          [
            -119.81444927213204,
            37.91467308001807
          ],
          [
            -119.81440205412103,
            37.914644513018835
          ],
          [
            -119.81436547011164,
            37.91461445701871
          ],
          [
            -119.81436003110703,
            37.91458229401612
          ],
          [
            -119.81436270210445,
            37.914555972013495
          ],
          [
            -119.8143837551057,
            37.9145376640103
          ],
          [
            -119.81440959010799,
            37.9145208650069
          ],
          [
            -119.81442316210764,
            37.914498814003835
          ],
          [
            -119.81443011510551,
            37.91447064200075
          ],
          [
            -119.81441759810164,
            37.914454718000215
          ],
          [
            -119.81437816009303,
            37.91443547400127
          ],
          [
            -119.81435120208538,
            37.91440756900067
          ],
          [
            -119.81431876407714,
            37.914381966000626
          ],
          [
            -119.8142469780617,
            37.914349045002844
          ],
          [
            -119.81413240603315,
            37.91426313600323
          ],
          [
            -119.81412318502822,
            37.914233214001115
          ],
          [
            -119.81417768403335,
            37.91420110999418
          ],
          [
            -119.81421305403593,
            37.91417323498904
          ],
          [
            -119.81424949204087,
            37.91416513998565
          ],
          [
            -119.81428269404397,
            37.91414513298141
          ],
          [
            -119.81435778405138,
            37.91410378497214
          ],
          [
            -119.81439903605526,
            37.91407966696691
          ],
          [
            -119.81444179505988,
            37.914059226961975
          ],
          [
            -119.8144668010614,
            37.914037407958105
          ],
          [
            -119.81446170805819,
            37.914017032956636
          ],
          [
            -119.81444371505201,
            37.91398840895528
          ],
          [
            -119.81444226304784,
            37.91395422995227
          ],
          [
            -119.81442198604213,
            37.91393360595183
          ],
          [
            -119.81439129603451,
            37.91391108095197
          ],
          [
            -119.8143685240279,
            37.91388560395126
          ],
          [
            -119.81433992202024,
            37.9138593799509
          ],
          [
            -119.81427668700843,
            37.913846039954244
          ],
          [
            -119.81425111000209,
            37.91382725795439
          ],
          [
            -119.81423514399633,
            37.91380023095305
          ],
          [
            -119.8142358399936,
            37.9137751779507
          ],
          [
            -119.81425122599268,
            37.91374571794686
          ],
          [
            -119.81424448698924,
            37.91372557794548
          ],
          [
            -119.81421888098167,
            37.91369555994455
          ],
          [
            -119.81417260597165,
            37.91367434394594
          ],
          [
            -119.81414484496437,
            37.91365003194574
          ],
          [
            -119.81415778696424,
            37.91363106194306
          ],
          [
            -119.81418720896681,
            37.91361181193917
          ],
          [
            -119.81419940296614,
            37.9135886879361
          ],
          [
            -119.81422116796675,
            37.91356347693222
          ],
          [
            -119.81425218196974,
            37.91354573392834
          ],
          [
            -119.81425736696781,
            37.9135215159257
          ],
          [
            -119.81425232496419,
            37.91349737892387
          ],
          [
            -119.81419615795228,
            37.913473517925766
          ],
          [
            -119.81416768294724,
            37.91346938992743
          ],
          [
            -119.81413724593959,
            37.9134463549275
          ],
          [
            -119.81407660592598,
            37.9134138239289
          ],
          [
            -119.81405083791691,
            37.91337157192687
          ],
          [
            -119.81402744490904,
            37.9133363279253
          ],
          [
            -119.81397744689383,
            37.91327506192327
          ],
          [
            -119.81391150587773,
            37.91322827692375
          ],
          [
            -119.8138836938688,
            37.913190272922286
          ],
          [
            -119.81384607485674,
            37.913138722920245
          ],
          [
            -119.81385595485483,
            37.91310820591668
          ],
          [
            -119.81383930084932,
            37.91308393591566
          ],
          [
            -119.81375446783004,
            37.91303633191744
          ],
          [
            -119.81369768381676,
            37.91300106591832
          ],
          [
            -119.81367305880944,
            37.91297264891748
          ],
          [
            -119.81366867980547,
            37.91294432391516
          ],
          [
            -119.81365391380017,
            37.912919008913875
          ],
          [
            -119.81362774779353,
            37.91289823291387
          ],
          [
            -119.81356379377698,
            37.91284518991365
          ],
          [
            -119.8134719857526,
            37.912763109912696
          ],
          [
            -119.81346115174694,
            37.912729417910384
          ],
          [
            -119.8134857917487,
            37.91271018990685
          ],
          [
            -119.8135318777525,
            37.912677843900504
          ],
          [
            -119.81355104175223,
            37.912648607896436
          ],
          [
            -119.81356449475149,
            37.9126233358931
          ],
          [
            -119.81354246174541,
            37.91260160789272
          ],
          [
            -119.81351240273875,
            37.91258639489345
          ],
          [
            -119.81348536973093,
            37.91255656889266
          ],
          [
            -119.813483262727,
            37.91252568688999
          ],
          [
            -119.81342963571413,
            37.912489582890544
          ],
          [
            -119.8134405157106,
            37.91244391588554
          ],
          [
            -119.813410129695,
            37.91235139987921
          ],
          [
            -119.81341034969081,
            37.912314926875816
          ],
          [
            -119.81340034968368,
            37.91226736987218
          ],
          [
            -119.8133063886602,
            37.91219565187237
          ],
          [
            -119.81324665264704,
            37.91216621987397
          ],
          [
            -119.81319568363526,
            37.912135549874826
          ],
          [
            -119.81317693962622,
            37.91208413787144
          ],
          [
            -119.81316477061903,
            37.912038920868184
          ],
          [
            -119.81314246861113,
            37.91200177586635
          ],
          [
            -119.81310600859948,
            37.91195205686439
          ],
          [
            -119.81309651459141,
            37.911895436859915
          ],
          [
            -119.81306000557957,
            37.91184479785784
          ],
          [
            -119.81298945056055,
            37.91177901085692
          ],
          [
            -119.81285812753009,
            37.91170014585917
          ],
          [
            -119.81269292348735,
            37.9115622238584
          ],
          [
            -119.81258058046062,
            37.911489007859814
          ],
          [
            -119.81251529444631,
            37.911456765861544
          ],
          [
            -119.81250302144099,
            37.91142767885978
          ],
          [
            -119.81260674245243,
            37.911381167847985
          ],
          [
            -119.81272392846374,
            37.911314400833305
          ],
          [
            -119.8127583334669,
            37.91129340482887
          ],
          [
            -119.81279444846783,
            37.91125055682229
          ],
          [
            -119.81282906747187,
            37.91123669781851
          ],
          [
            -119.81297680148946,
            37.91118143480267
          ],
          [
            -119.81303491449759,
            37.91117050879749
          ],
          [
            -119.81311452750822,
            37.91114998578983
          ],
          [
            -119.81315304951383,
            37.91114430478651
          ],
          [
            -119.81319085352006,
            37.911145422783875
          ],
          [
            -119.81327868453242,
            37.911129293775986
          ],
          [
            -119.81333445053838,
            37.91110198076947
          ],
          [
            -119.81341066754746,
            37.91107351376126
          ],
          [
            -119.8134908605575,
            37.91104728575307
          ],
          [
            -119.81357120857004,
            37.91104323674688
          ],
          [
            -119.81363328258028,
            37.91104497874253
          ],
          [
            -119.81371184859381,
            37.91105147973742
          ],
          [
            -119.81375035659893,
            37.91104156273371
          ],
          [
            -119.81378041560248,
            37.911029728730405
          ],
          [
            -119.81380370260295,
            37.91100132872614
          ],
          [
            -119.81384368360749,
            37.91098471572169
          ],
          [
            -119.81395116161953,
            37.91093742570954
          ],
          [
            -119.81399512662455,
            37.91091928170466
          ],
          [
            -119.81404214862906,
            37.91089196069871
          ],
          [
            -119.81409093463553,
            37.910879484694036
          ],
          [
            -119.81414795964176,
            37.91085328768752
          ],
          [
            -119.81418108364596,
            37.91084272168413
          ],
          [
            -119.81421695965093,
            37.910835758680854
          ],
          [
            -119.8142496276544,
            37.91081982367705
          ],
          [
            -119.81427701665592,
            37.910794493672704
          ],
          [
            -119.81431967665925,
            37.910762986666754
          ],
          [
            -119.81435536266109,
            37.910728899661
          ],
          [
            -119.81441179266676,
            37.91069845365412
          ],
          [
            -119.81444951967244,
            37.91069477865102
          ],
          [
            -119.81448502067543,
            37.91067108364628
          ],
          [
            -119.814554011674,
            37.91056136563112
          ],
          [
            -119.81457736067229,
            37.91051353362502
          ],
          [
            -119.81458603766328,
            37.91042355261611
          ],
          [
            -119.8146048586625,
            37.91039019961168
          ],
          [
            -119.81460978766063,
            37.910367116609144
          ],
          [
            -119.81459629165629,
            37.91034828160841
          ],
          [
            -119.81458399765154,
            37.91032456960714
          ],
          [
            -119.81458438264877,
            37.91030040260484
          ],
          [
            -119.81460774665035,
            37.9102810426014
          ],
          [
            -119.81462095564879,
            37.91024919459746
          ],
          [
            -119.81462602464434,
            37.910203520592894
          ]
        ],
        "type": "LineString"
      },
      "id": "nps-trail-22819",
      "properties": {
        "feature_id": "nps-trail-22819",
        "nps_feature_id": "{AF1B24ED-3E8B-4D72-8970-346D3AA24E14}",
        "nps_object_id": 22819,
        "route_id": "route-poopenaut-valley",
        "source_id": "source-nps-public-trails-feature-service",
        "surface": "Native",
        "trail_name": "Poopenaut Valley Trail",
        "use": "Hiker/Pedestrian"
      },
      "type": "Feature"
    }
  ],
  "type": "FeatureCollection"
}
