{
  "features": [
    {
      "geometry": {
        "coordinates": [
          [
            -119.9068410709654,
            38.178658657463544
          ],
          [
            -119.906779256954,
            38.17864673146698
          ],
          [
            -119.90673340194395,
            38.17862445046836
          ],
          [
            -119.9066438519236,
            38.17857517547048
          ],
          [
            -119.90659125790573,
            38.178496242467105
          ],
          [
            -119.90648370386653,
            38.17831201845829
          ],
          [
            -119.90644167684555,
            38.17819216445042
          ],
          [
            -119.9063996848214,
            38.17804505444011
          ],
          [
            -119.90640740580594,
            38.1779038294267
          ],
          [
            -119.90643022378133,
            38.17766357240317
          ],
          [
            -119.90646170977695,
            38.17758396939358
          ]
        ],
        "type": "LineString"
      },
      "properties": {
        "feature_id": "usfs-emigrant-start-lake-valley",
        "length_field_scope": "original source feature; not the clipped Wayproof segment",
        "source_attributes": {
          "admin_org": "051653",
          "bmp": 10.1,
          "emp": 12.332,
          "gis_miles": 2.231,
          "globalid": "{DD41DD87-9AAE-4FE1-B078-0427EEE709F1}",
          "objectid": 9428086,
          "segment_length": 2.232,
          "trail_cn": "5108.004431",
          "trail_name": "CRABTREE",
          "trail_no": "20E16"
        },
        "source_geometry_sha256": "2981019ede764a56a3abd6953d261f2dfc39bdc040a24bf62e198011f7e5d8f8",
        "source_vertex_count": 183,
        "source_vertex_range_inclusive": [
          182,
          172
        ],
        "xy_accuracy": "unknown; source coordinate digits are not an accuracy statement"
      },
      "type": "Feature"
    },
    {
      "geometry": {
        "coordinates": [
          [
            -119.90646170977695,
            38.17758396939358
          ],
          [
            -119.90647792377479,
            38.177542979388654
          ],
          [
            -119.90645443376569,
            38.177498163386275
          ],
          [
            -119.90640739373184,
            38.17727620536953
          ],
          [
            -119.90633266969556,
            38.17707149635638
          ],
          [
            -119.90624369066488,
            38.17693397435041
          ],
          [
            -119.90612574263425,
            38.17683628035023
          ],
          [
            -119.90593155659148,
            38.17674104435584
          ],
          [
            -119.90570995054317,
            38.17663607336256
          ],
          [
            -119.90548150049266,
            38.176521920369005
          ],
          [
            -119.9052594334448,
            38.17642153337617
          ],
          [
            -119.90508638740604,
            38.17633135138073
          ],
          [
            -119.90493388737342,
            38.17626421338583
          ],
          [
            -119.90476741234109,
            38.17621928439396
          ],
          [
            -119.90471144432863,
            38.176190813395486
          ],
          [
            -119.90469113432212,
            38.176163271394465
          ],
          [
            -119.90471995331463,
            38.176060384383014
          ],
          [
            -119.90478975931816,
            38.17599468037188
          ],
          [
            -119.90484605532166,
            38.17594660036335
          ],
          [
            -119.90488159431744,
            38.17586197935306
          ],
          [
            -119.90493082631757,
            38.175795630343394
          ],
          [
            -119.90496624631385,
            38.175715507333436
          ],
          [
            -119.90503569631846,
            38.17565879932318
          ],
          [
            -119.9051339303293,
            38.17561632731207
          ],
          [
            -119.90516893233246,
            38.17559476630754
          ],
          [
            -119.90514891430946,
            38.17542752229378
          ],
          [
            -119.90506636828788,
            38.17535783029351
          ],
          [
            -119.90499757026527,
            38.17526134228977
          ],
          [
            -119.90499829025158,
            38.17514431027907
          ],
          [
            -119.90504120724273,
            38.17501022026373
          ],
          [
            -119.90510454124099,
            38.17490835024976
          ],
          [
            -119.90515403023849,
            38.17481951123802
          ],
          [
            -119.90517575123093,
            38.1747255252279
          ],
          [
            -119.90513551720355,
            38.17454873021475
          ],
          [
            -119.90505268517654,
            38.17443397021035
          ],
          [
            -119.90500504215646,
            38.174329133204324
          ],
          [
            -119.905006284137,
            38.17416244618906
          ],
          [
            -119.90502790212832,
            38.17405937317809
          ],
          [
            -119.905050018116,
            38.17392481816422
          ],
          [
            -119.90511313511315,
            38.173813861149455
          ],
          [
            -119.90518413711159,
            38.17370318013415
          ],
          [
            -119.90523379010436,
            38.17357386311868
          ],
          [
            -119.90525606608784,
            38.17340323310154
          ],
          [
            -119.9052436490608,
            38.1731911970831
          ],
          [
            -119.90520381402814,
            38.17296942406588
          ],
          [
            -119.9052126940009,
            38.17272637004307
          ],
          [
            -119.90519393996695,
            38.17246458202061
          ],
          [
            -119.90514688293524,
            38.1722606150055
          ],
          [
            -119.90505117889177,
            38.17202386499097
          ],
          [
            -119.90491407584416,
            38.17180858198145
          ],
          [
            -119.90486683181932,
            38.17166317597168
          ],
          [
            -119.90488861480588,
            38.17151953295701
          ],
          [
            -119.90496568480424,
            38.1713999519404
          ],
          [
            -119.90509923480987,
            38.1712638639182
          ],
          [
            -119.90515662879592,
            38.171067174896045
          ],
          [
            -119.90515847477339,
            38.17087350087827
          ],
          [
            -119.90517460174308,
            38.17059464985167
          ],
          [
            -119.90523894872132,
            38.17032150382206
          ],
          [
            -119.9053390446969,
            38.16997732078337
          ],
          [
            -119.90545966469082,
            38.1697598127547
          ],
          [
            -119.90562095769242,
            38.16955231972392
          ],
          [
            -119.90576787470019,
            38.1694165107007
          ],
          [
            -119.90582408869999,
            38.16933694368933
          ],
          [
            -119.90585314469146,
            38.169225061677004
          ],
          [
            -119.90584750967247,
            38.169071772663486
          ],
          [
            -119.90587712465451,
            38.16887883964374
          ],
          [
            -119.90592697863883,
            38.16867746662168
          ],
          [
            -119.90595671362036,
            38.1684800366015
          ],
          [
            -119.90599252761137,
            38.16835484558746
          ],
          [
            -119.90604850861162,
            38.16827977657651
          ],
          [
            -119.90616795861807,
            38.16817030255776
          ],
          [
            -119.90631475162634,
            38.16803899153504
          ],
          [
            -119.90645537763311,
            38.167903086512275
          ],
          [
            -119.90658186063487,
            38.1677442324885
          ],
          [
            -119.90670847963457,
            38.16756738746309
          ],
          [
            -119.90681431562918,
            38.1673764924379
          ],
          [
            -119.90687812662487,
            38.167252042421886
          ],
          [
            -119.90689913661924,
            38.16717595641344
          ],
          [
            -119.90687264860158,
            38.167062681405
          ],
          [
            -119.90678919557983,
            38.166992900404814
          ],
          [
            -119.90664342655096,
            38.1669485294115
          ],
          [
            -119.90646343451057,
            38.16685366541608
          ],
          [
            -119.90628386246335,
            38.16670024141535
          ],
          [
            -119.9060489364001,
            38.16648686241318
          ],
          [
            -119.90579304933811,
            38.16631340741617
          ],
          [
            -119.90556429828652,
            38.166190258421786
          ],
          [
            -119.90531498423101,
            38.16606205542846
          ],
          [
            -119.90510030218061,
            38.16593027943219
          ],
          [
            -119.9048577211272,
            38.16581125743921
          ],
          [
            -119.9045873420719,
            38.16571398045024
          ],
          [
            -119.90426095600843,
            38.16562430546609
          ],
          [
            -119.90380993692588,
            38.165544873492024
          ],
          [
            -119.9035356218747,
            38.165488073506964
          ],
          [
            -119.90327852083009,
            38.165463219523666
          ],
          [
            -119.90310447180185,
            38.165463169536416
          ],
          [
            -119.90274936174794,
            38.16549427856539
          ],
          [
            -119.9024913697117,
            38.16554156558864
          ],
          [
            -119.90226878567759,
            38.16555820860658
          ],
          [
            -119.90201089563708,
            38.16556942062656
          ],
          [
            -119.90170511058493,
            38.165547761647055
          ],
          [
            -119.90136508252343,
            38.165493781667124
          ],
          [
            -119.90112184747788,
            38.16544230568036
          ],
          [
            -119.9008992954358,
            38.165391388692086
          ],
          [
            -119.90075345140902,
            38.1653650017004
          ],
          [
            -119.90071924240179,
            38.1653505807016
          ],
          [
            -119.90071919040176,
            38.165350570701605
          ]
        ],
        "type": "LineString"
      },
      "properties": {
        "feature_id": "usfs-emigrant-lake-valley-pine-valley",
        "length_field_scope": "original source feature; not the clipped Wayproof segment",
        "source_attributes": {
          "admin_org": "051653",
          "bmp": 10.1,
          "emp": 12.332,
          "gis_miles": 2.231,
          "globalid": "{DD41DD87-9AAE-4FE1-B078-0427EEE709F1}",
          "objectid": 9428086,
          "segment_length": 2.232,
          "trail_cn": "5108.004431",
          "trail_name": "CRABTREE",
          "trail_no": "20E16"
        },
        "source_geometry_sha256": "2981019ede764a56a3abd6953d261f2dfc39bdc040a24bf62e198011f7e5d8f8",
        "source_vertex_count": 183,
        "source_vertex_range_inclusive": [
          172,
          67
        ],
        "xy_accuracy": "unknown; source coordinate digits are not an accuracy statement"
      },
      "type": "Feature"
    },
    {
      "geometry": {
        "coordinates": [
          [
            -119.90071919040176,
            38.165350570701605
          ],
          [
            -119.90058688437725,
            38.16532456370893
          ],
          [
            -119.90031641632031,
            38.16521378471876
          ],
          [
            -119.90006693026528,
            38.16509007272583
          ],
          [
            -119.89971985220048,
            38.165017812744736
          ],
          [
            -119.899101198095,
            38.16497438778628
          ],
          [
            -119.89884422504984,
            38.164945115802496
          ],
          [
            -119.89853806000087,
            38.16495052682552
          ],
          [
            -119.89831524296723,
            38.16497165884381
          ],
          [
            -119.8980291949311,
            38.165058674872796
          ],
          [
            -119.89789019791024,
            38.165073035884326
          ],
          [
            -119.89773040087854,
            38.16502378789162
          ],
          [
            -119.89755002184339,
            38.16497397890032
          ],
          [
            -119.89729936580142,
            38.1649627899177
          ],
          [
            -119.8970422247605,
            38.16496949693724
          ],
          [
            -119.89675670871704,
            38.16499345096046
          ],
          [
            -119.89645757066546,
            38.16496755698006
          ],
          [
            -119.89617952661574,
            38.16492863699695
          ],
          [
            -119.89588831756123,
            38.164866844012735
          ],
          [
            -119.8956517785163,
            38.16481105802502
          ],
          [
            -119.89545774147886,
            38.164760874034755
          ],
          [
            -119.89525574844653,
            38.164764568049925
          ],
          [
            -119.89501216041214,
            38.16480762307175
          ],
          [
            -119.8947790283741,
            38.16480598008878
          ],
          [
            -119.89454941833885,
            38.16482242310717
          ],
          [
            -119.89423579529124,
            38.16485012313271
          ],
          [
            -119.8940897642708,
            38.16487779114602
          ],
          [
            -119.89391497225677,
            38.16499934716996
          ],
          [
            -119.89376739024623,
            38.16511256219113
          ],
          [
            -119.89357264322517,
            38.16520198621355
          ],
          [
            -119.89337747219663,
            38.165228350230315
          ],
          [
            -119.89309902115215,
            38.16523448925133
          ],
          [
            -119.89286238411515,
            38.16524624426982
          ],
          [
            -119.89271595909418,
            38.165269412282726
          ],
          [
            -119.8925701510695,
            38.16526100829268
          ],
          [
            -119.89229909601943,
            38.16520877030787
          ],
          [
            -119.89211914597742,
            38.165100392311174
          ],
          [
            -119.89199533994208,
            38.164971015308524
          ],
          [
            -119.89190542791604,
            38.164874051306285
          ],
          [
            -119.89180232588252,
            38.1647316483009
          ],
          [
            -119.89169841485892,
            38.164674786303344
          ],
          [
            -119.89151052382574,
            38.16465177631507
          ],
          [
            -119.89123233478244,
            38.16466699733692
          ],
          [
            -119.8909749837404,
            38.16466460435557
          ],
          [
            -119.89070378469292,
            38.16463494337282
          ],
          [
            -119.89039819663442,
            38.16455928238841
          ],
          [
            -119.89014926457838,
            38.16442655039461
          ],
          [
            -119.88988618851786,
            38.16427536440018
          ],
          [
            -119.88967064447476,
            38.16420662040975
          ],
          [
            -119.8894764044363,
            38.16414743141861
          ],
          [
            -119.88920497439354,
            38.16415824543957
          ],
          [
            -119.88896837535867,
            38.16418798545968
          ],
          [
            -119.88868246931993,
            38.164252488486625
          ],
          [
            -119.8882993092698,
            38.16435495252408
          ],
          [
            -119.88799251023025,
            38.16444138655455
          ],
          [
            -119.88772082019008,
            38.16447468557755
          ],
          [
            -119.88748434015474,
            38.164499923597226
          ],
          [
            -119.8871776531109,
            38.16455037162441
          ],
          [
            -119.88685018806208,
            38.164586766651794
          ],
          [
            -119.88645358500177,
            38.1646212966841
          ],
          [
            -119.886091246953,
            38.1647062317185
          ],
          [
            -119.88580152991626,
            38.16479312474773
          ],
          [
            -119.88548809287613,
            38.16488395277904
          ],
          [
            -119.8852855998469,
            38.164914615796754
          ],
          [
            -119.88479787278375,
            38.165050253844946
          ],
          [
            -119.88444279373144,
            38.165094889875164
          ],
          [
            -119.88417747069445,
            38.16514635989934
          ],
          [
            -119.88391532965653,
            38.16518574092221
          ]
        ],
        "type": "LineString"
      },
      "properties": {
        "feature_id": "usfs-emigrant-pine-valley-camp",
        "length_field_scope": "original source feature; not the clipped Wayproof segment",
        "source_attributes": {
          "admin_org": "051653",
          "bmp": 10.1,
          "emp": 12.332,
          "gis_miles": 2.231,
          "globalid": "{DD41DD87-9AAE-4FE1-B078-0427EEE709F1}",
          "objectid": 9428086,
          "segment_length": 2.232,
          "trail_cn": "5108.004431",
          "trail_name": "CRABTREE",
          "trail_no": "20E16"
        },
        "source_geometry_sha256": "2981019ede764a56a3abd6953d261f2dfc39bdc040a24bf62e198011f7e5d8f8",
        "source_vertex_count": 183,
        "source_vertex_range_inclusive": [
          67,
          0
        ],
        "xy_accuracy": "unknown; source coordinate digits are not an accuracy statement"
      },
      "type": "Feature"
    },
    {
      "geometry": {
        "coordinates": [
          [
            -119.88391532965653,
            38.16518574092221
          ],
          [
            -119.88387163965024,
            38.16519230392605
          ],
          [
            -119.88360655861649,
            38.1652708489527
          ],
          [
            -119.88339043758714,
            38.165319216972954
          ],
          [
            -119.88322252256678,
            38.16537779599069
          ],
          [
            -119.8830697075447,
            38.165400765004
          ],
          [
            -119.88283305050398,
            38.165380925019605
          ],
          [
            -119.8825623604571,
            38.165355745037196
          ],
          [
            -119.8823678354228,
            38.16533252604936
          ],
          [
            -119.88211776537557,
            38.16527632806265
          ],
          [
            -119.881902219333,
            38.16521206807265
          ],
          [
            -119.8817286972995,
            38.16516692008126
          ],
          [
            -119.88158294127113,
            38.16512701608834
          ],
          [
            -119.88138162923889,
            38.16513059610345
          ],
          [
            -119.88120755221277,
            38.16514850711794
          ],
          [
            -119.88090800116592,
            38.16516305314128
          ],
          [
            -119.88049731810486,
            38.165210681175836
          ],
          [
            -119.88018383005519,
            38.16522035519976
          ],
          [
            -119.87991963201517,
            38.1652449172214
          ],
          [
            -119.8797517819943,
            38.16529899723871
          ],
          [
            -119.87950853095514,
            38.1653015422568
          ],
          [
            -119.87922317891274,
            38.16533445028078
          ],
          [
            -119.87893050187391,
            38.16540774030903
          ],
          [
            -119.87869286084732,
            38.16550960133573
          ],
          [
            -119.87846206282292,
            38.16562055436283
          ],
          [
            -119.87825932980643,
            38.165759332390394
          ],
          [
            -119.87813331979942,
            38.16587308941004
          ],
          [
            -119.87799951179653,
            38.16603310643447
          ],
          [
            -119.87780031177306,
            38.16610804245599
          ],
          [
            -119.87762457674874,
            38.1661434834721
          ],
          [
            -119.87741437071607,
            38.166155721488686
          ]
        ],
        "type": "LineString"
      },
      "properties": {
        "feature_id": "usfs-emigrant-camp-bear-junction",
        "length_field_scope": "original source feature; not the clipped Wayproof segment",
        "source_attributes": {
          "admin_org": "051653",
          "bmp": 0,
          "emp": 10.1,
          "gis_miles": 9.942,
          "globalid": "{1D2CDA88-08B4-4846-B5CD-A4ECF893054B}",
          "objectid": 9430618,
          "segment_length": 10.1,
          "trail_cn": "5108.004431",
          "trail_name": "CRABTREE",
          "trail_no": "20E16"
        },
        "source_geometry_sha256": "a6c340180cf7e80db18103ead43d57d09592a0e03b2f9f7a4cb3064d4108877d",
        "source_vertex_count": 837,
        "source_vertex_range_inclusive": [
          836,
          806
        ],
        "xy_accuracy": "unknown; source coordinate digits are not an accuracy statement"
      },
      "type": "Feature"
    },
    {
      "geometry": {
        "coordinates": [
          [
            -119.87741437071607,
            38.166155721488686
          ],
          [
            -119.87735791371527,
            38.16622627949927
          ],
          [
            -119.87731217671781,
            38.16631065651034
          ],
          [
            -119.87726643972029,
            38.166395033521404
          ],
          [
            -119.87721702172327,
            38.16648800453353
          ],
          [
            -119.87716727872622,
            38.16658159154573
          ],
          [
            -119.87708267373137,
            38.16674153756652
          ],
          [
            -119.8769797967409,
            38.16696398259439
          ],
          [
            -119.87684578874851,
            38.167212665626934
          ],
          [
            -119.87671939474409,
            38.16734899964865
          ],
          [
            -119.87662103574165,
            38.1674635016663
          ],
          [
            -119.87656343374262,
            38.16755146467857
          ],
          [
            -119.87650795274362,
            38.167636191690356
          ],
          [
            -119.8762973287338,
            38.16784224472466
          ],
          [
            -119.87621295972569,
            38.16788998973522
          ],
          [
            -119.87613008671778,
            38.16793688674561
          ],
          [
            -119.87607890171202,
            38.16795818675133
          ],
          [
            -119.87602835670627,
            38.167979236756956
          ],
          [
            -119.8760283067063,
            38.16797925175696
          ],
          [
            -119.87596582769754,
            38.167991140762645
          ],
          [
            -119.8759657706975,
            38.167991140762645
          ],
          [
            -119.87583989968415,
            38.16805083177735
          ],
          [
            -119.87583984768413,
            38.16805084277735
          ],
          [
            -119.87577923567576,
            38.16806354978297
          ],
          [
            -119.87572551466842,
            38.168074811787925
          ],
          [
            -119.87572546566841,
            38.16807482878791
          ],
          [
            -119.87567004866249,
            38.168100941794435
          ],
          [
            -119.87561686365682,
            38.168125985800614
          ],
          [
            -119.87562421567708,
            38.16828756581481
          ],
          [
            -119.87563163669748,
            38.168450651829126
          ],
          [
            -119.87561828973408,
            38.16877915886007
          ],
          [
            -119.87565757674957,
            38.16885642686421
          ],
          [
            -119.87569723076523,
            38.168934413868406
          ],
          [
            -119.87571060877384,
            38.1689887858724
          ],
          [
            -119.87572402078241,
            38.169043288876395
          ],
          [
            -119.87567786279024,
            38.1691726878916
          ],
          [
            -119.87561309978845,
            38.16924686390312
          ],
          [
            -119.87554721278669,
            38.16932232891486
          ],
          [
            -119.87553440279547,
            38.16941453192421
          ],
          [
            -119.87552164780425,
            38.169506352933475
          ],
          [
            -119.87555621881606,
            38.16955927993578
          ],
          [
            -119.87559049982782,
            38.16961176293804
          ],
          [
            -119.87568117785007,
            38.16967567593723
          ],
          [
            -119.8757699498719,
            38.1697382469364
          ],
          [
            -119.87583215888746,
            38.16978490793608
          ],
          [
            -119.8758631458995,
            38.16984431093924
          ],
          [
            -119.87585178190932,
            38.169943070949046
          ],
          [
            -119.87578437592107,
            38.17013496797154
          ],
          [
            -119.87573669792039,
            38.17019470198049
          ],
          [
            -119.8756893179197,
            38.17025406198941
          ],
          [
            -119.8754640808936,
            38.17034266101404
          ],
          [
            -119.87523884186746,
            38.17043125903868
          ],
          [
            -119.87514725386751,
            38.170557558056906
          ],
          [
            -119.87505613086758,
            38.17068321707507
          ],
          [
            -119.87485701084525,
            38.17076801909746
          ],
          [
            -119.87477605384301,
            38.170860409111846
          ],
          [
            -119.87474694385742,
            38.171022662128784
          ],
          [
            -119.87471813987169,
            38.17118320114557
          ],
          [
            -119.8747283928953,
            38.17136907216175
          ],
          [
            -119.87473854691865,
            38.17155312217778
          ],
          [
            -119.87471573591945,
            38.171591224182954
          ],
          [
            -119.87469338892024,
            38.17162854818799
          ],
          [
            -119.8745853689094,
            38.171685258201144
          ],
          [
            -119.8744729608981,
            38.171744281214735
          ],
          [
            -119.87435988288216,
            38.171764279224924
          ],
          [
            -119.87422932986367,
            38.17178736723658
          ],
          [
            -119.87422927786363,
            38.17178737923665
          ],
          [
            -119.87414438885276,
            38.1718119132451
          ],
          [
            -119.8740580428417,
            38.17183685425372
          ],
          [
            -119.87402302084065,
            38.17187629425992
          ],
          [
            -119.87398773583966,
            38.17191603326612
          ],
          [
            -119.87398389585175,
            38.17202406527627
          ],
          [
            -119.87397600985841,
            38.17209143428297
          ],
          [
            -119.87396352686224,
            38.17214062728835
          ],
          [
            -119.87395104286595,
            38.17218982029382
          ],
          [
            -119.87393153286673,
            38.17222292929823
          ],
          [
            -119.87391184286746,
            38.17225634730272
          ],
          [
            -119.87381689486615,
            38.17237544032059
          ],
          [
            -119.87376755486487,
            38.17243280232946
          ],
          [
            -119.87371840886365,
            38.172489939338284
          ],
          [
            -119.87364881685961,
            38.17255112634895
          ],
          [
            -119.87359970485731,
            38.172599381356996
          ],
          [
            -119.87356797885683,
            38.17263910936295
          ],
          [
            -119.87352562385468,
            38.172678555369664
          ],
          [
            -119.8734333118454,
            38.172727489380925
          ],
          [
            -119.87334762583689,
            38.17277291139135
          ],
          [
            -119.87312435481269,
            38.17287504741708
          ],
          [
            -119.87304661980656,
            38.1729296074278
          ],
          [
            -119.87296976180043,
            38.17298355143838
          ],
          [
            -119.87284994978944,
            38.17305544545371
          ],
          [
            -119.87272538277803,
            38.17313019146971
          ],
          [
            -119.87258236176555,
            38.1732209864885
          ],
          [
            -119.87254381676131,
            38.17323794649288
          ],
          [
            -119.87254376076125,
            38.17323794749293
          ],
          [
            -119.87250407975533,
            38.17324197349621
          ],
          [
            -119.87247357175073,
            38.17324506949874
          ],
          [
            -119.87247352475069,
            38.1732450674987
          ],
          [
            -119.87233105472717,
            38.17324132150885
          ],
          [
            -119.87233099872715,
            38.17324131550885
          ],
          [
            -119.87227163871685,
            38.1732354435127
          ],
          [
            -119.8722060857054,
            38.17322895751692
          ],
          [
            -119.87220604170544,
            38.173228953516904
          ],
          [
            -119.8721810387018,
            38.17323257851911
          ],
          [
            -119.8721536796978,
            38.173236545521476
          ],
          [
            -119.8721536256978,
            38.173236543521455
          ],
          [
            -119.87208060568891,
            38.173261654529135
          ],
          [
            -119.87208055268889,
            38.17326166452913
          ],
          [
            -119.87201806768016,
            38.17327346153482
          ],
          [
            -119.87201801068016,
            38.17327346353481
          ],
          [
            -119.87188587765935,
            38.17327898654506
          ],
          [
            -119.87188582165938,
            38.173278988545036
          ],
          [
            -119.87184416365245,
            38.173277865547995
          ],
          [
            -119.87180250464556,
            38.173276741550964
          ],
          [
            -119.87180245164554,
            38.173276732550946
          ],
          [
            -119.87174160563441,
            38.1732661065545
          ],
          [
            -119.87168076162325,
            38.173255481558
          ],
          [
            -119.87168070762327,
            38.173255471558
          ],
          [
            -119.8716329116151,
            38.17325205856119
          ],
          [
            -119.87157968360602,
            38.17324825656478
          ],
          [
            -119.87157962660605,
            38.173248260564755
          ],
          [
            -119.87145823858698,
            38.173254061574255
          ],
          [
            -119.87145818158696,
            38.17325406457422
          ],
          [
            -119.87138537157549,
            38.17325659657981
          ],
          [
            -119.87138531657544,
            38.17325659557981
          ],
          [
            -119.87133944757053,
            38.17327786658511
          ],
          [
            -119.87117909955198,
            38.17334120460271
          ],
          [
            -119.87113466354617,
            38.17335322060709
          ],
          [
            -119.87108830854017,
            38.173365755611634
          ],
          [
            -119.8710882525401,
            38.1733657546116
          ],
          [
            -119.871025249531,
            38.17337511861714
          ],
          [
            -119.87095963752147,
            38.17338486962284
          ],
          [
            -119.87095958352148,
            38.17338487062284
          ],
          [
            -119.87092342451574,
            38.173385930625585
          ],
          [
            -119.87087980250881,
            38.17338720862892
          ],
          [
            -119.87087974550883,
            38.1733872106289
          ],
          [
            -119.87078922849386,
            38.17338486563537
          ],
          [
            -119.87078917249383,
            38.17338486563537
          ],
          [
            -119.87072285448497,
            38.17340107564175
          ],
          [
            -119.87063182347352,
            38.17342923665099
          ],
          [
            -119.87054869146307,
            38.173454952659434
          ],
          [
            -119.87046120845233,
            38.173484184668574
          ],
          [
            -119.87035298244183,
            38.17354433868201
          ],
          [
            -119.87002727441129,
            38.1737333907232
          ],
          [
            -119.86967774137854,
            38.17393627276742
          ],
          [
            -119.86949807735034,
            38.17394500278142
          ],
          [
            -119.86937906633175,
            38.17395078479072
          ],
          [
            -119.86934406232805,
            38.17396793179484
          ],
          [
            -119.86932449733297,
            38.174036470802534
          ],
          [
            -119.86930450333804,
            38.1741065118104
          ],
          [
            -119.86929866334346,
            38.17416066181575
          ],
          [
            -119.86929288434885,
            38.17421426482109
          ],
          [
            -119.86921245234137,
            38.17426167483132
          ],
          [
            -119.86881159329367,
            38.174408677874204
          ],
          [
            -119.86856298227008,
            38.17455062790544
          ],
          [
            -119.86850181926165,
            38.17456335491112
          ],
          [
            -119.86844778725417,
            38.174574609916114
          ],
          [
            -119.86844773125416,
            38.1745746109161
          ],
          [
            -119.86750512110247,
            38.17458544998647
          ],
          [
            -119.86734656806344,
            38.17447309998787
          ],
          [
            -119.86727705904498,
            38.17441239998744
          ],
          [
            -119.86720825902671,
            38.17435231798704
          ],
          [
            -119.86715975301712,
            38.17433751698923
          ],
          [
            -119.86715970901712,
            38.174337511989215
          ],
          [
            -119.86709170000955,
            38.17436709099692
          ],
          [
            -119.86702313700192,
            38.17439691200468
          ]
        ],
        "type": "LineString"
      },
      "properties": {
        "feature_id": "usfs-emigrant-bear-spur",
        "length_field_scope": "original source feature; not the clipped Wayproof segment",
        "source_attributes": {
          "admin_org": "051653",
          "bmp": 0,
          "emp": 1,
          "gis_miles": 0.9720000000000001,
          "globalid": "{8497BEEB-8635-4A89-8352-B24C998130DD}",
          "objectid": 9430557,
          "segment_length": 1,
          "trail_cn": "5084.004431",
          "trail_name": "BEAR LAKE",
          "trail_no": "19E09"
        },
        "source_geometry_sha256": "f2eaf8b1c143786569dbc020804f0a982910bb011b9b1396be49ec20b5e1755c",
        "source_vertex_count": 165,
        "source_vertex_range_inclusive": [
          0,
          164
        ],
        "xy_accuracy": "unknown; source coordinate digits are not an accuracy statement"
      },
      "type": "Feature"
    }
  ],
  "type": "FeatureCollection",
  "wayproof": {
    "camp_endpoint_note": "The shared source-feature break supplies a reviewed western-approach display position, not an official lake centroid, surveyed junction or campsite.",
    "classification": "public_domain",
    "lake_valley_junction_note": "Crabtree vertex 172 is the reviewed display position. The unimported Lake Valley branch endpoint differs by approximately 0.08 m in the normalized response; neither line is snapped and no new branch relationship is created.",
    "navigation_grade": false,
    "normalized_coordinate_reference_system": "EPSG:4326",
    "processing": "Reviewed contiguous source-vertex slices, oriented to existing canonical endpoints; no snapping, interpolation, simplification or mileage calculation.",
    "publisher": "USDA Forest Service",
    "retrieved_at": "2026-10-06T00:09:34+00:00",
    "review_basis": "Named 20E16 CRABTREE and 19E09 BEAR LAKE features matched to the 2010 Emigrant overview and Camp/Bear minimum camping maps. Existing relationships supply connectivity.",
    "source": "https://apps.fs.usda.gov/arcx/rest/services/EDW/EDW_TrailNFSPublish_01/MapServer/0",
    "source_coordinate_reference_system": "EPSG:4269",
    "source_id": "source-usfs-emigrant-nfs-trail-geometry"
  }
}
