{
  "type": "FeatureCollection",
  "features": [
    {
      "type": "Feature",
      "properties": {
        "feature_id": "{177FA3E2-60B8-4E6E-985B-A307FDFB4EE0}",
        "name": "GEM LAKES",
        "distance_miles": 0.37391222,
        "source_originator": "U.S. Forest Service",
        "source_dataset_id": "{8CC4DB36-D0BE-4189-88C7-64C3569EB754}",
        "source_feature_id": "6815",
        "source_data_description": "USFS Trails Update 03/2026",
        "source_edit_date": 1774742400000,
        "load_date": 1777310283000,
        "trail_type": "Terra Trail",
        "trail_surface": "Unpaved Native"
      },
      "geometry": {
        "type": "LineString",
        "coordinates": [
          [
            -118.7548742979842,
            37.39262871904225
          ],
          [
            -118.75489155944251,
            37.392596918000606
          ],
          [
            -118.75487048340091,
            37.392540900292374
          ],
          [
            -118.75487159902588,
            37.392498070084116
          ],
          [
            -118.75487246985921,
            37.39245975237583
          ],
          [
            -118.75485388340093,
            37.392419470084235
          ],
          [
            -118.75484284590095,
            37.39237006279262
          ],
          [
            -118.7548412781926,
            37.39231826487605
          ],
          [
            -118.7548386573593,
            37.392266477376154
          ],
          [
            -118.75483185840096,
            37.39221700966789
          ],
          [
            -118.75483917090094,
            37.392167331542964
          ],
          [
            -118.75481371569265,
            37.39212039091802
          ],
          [
            -118.75479198860938,
            37.39206663466814
          ],
          [
            -118.75478931569268,
            37.392012600293185
          ],
          [
            -118.75479187819269,
            37.39195622841828
          ],
          [
            -118.75480003756769,
            37.39189752529336
          ],
          [
            -118.75480872402602,
            37.391861348210114
          ],
          [
            -118.754811805276,
            37.39181172841853
          ],
          [
            -118.75480358965103,
            37.391762281543606
          ],
          [
            -118.7548638969426,
            37.391729841960284
          ],
          [
            -118.75487655110925,
            37.39168233675207
          ],
          [
            -118.75490650527587,
            37.391634580502114
          ],
          [
            -118.75493645110913,
            37.39158681904388
          ],
          [
            -118.7549386115258,
            37.39152820133563
          ],
          [
            -118.7549471740258,
            37.391471744044054
          ],
          [
            -118.75495891465079,
            37.39141523987746
          ],
          [
            -118.75495432090077,
            37.391354475294236
          ],
          [
            -118.75495623131741,
            37.3913003690443
          ],
          [
            -118.75496426465077,
            37.39126645341935
          ],
          [
            -118.75498055735909,
            37.391223397169426
          ],
          [
            -118.75500820840068,
            37.39119820341949
          ],
          [
            -118.75505312923394,
            37.391156981544555
          ],
          [
            -118.7550889500672,
            37.39113391800288
          ],
          [
            -118.75511559590052,
            37.39111099612796
          ],
          [
            -118.75513911360883,
            37.39109036591964
          ],
          [
            -118.75518876256706,
            37.39108512216967
          ],
          [
            -118.75524098340031,
            37.39108434925299
          ],
          [
            -118.75529301048357,
            37.39109033883631
          ],
          [
            -118.75534523860847,
            37.39108956487797
          ],
          [
            -118.75539760215008,
            37.39107977737797
          ],
          [
            -118.75545905006663,
            37.39108111904466
          ],
          [
            -118.75552562194156,
            37.391059857586356
          ],
          [
            -118.75558133964978,
            37.391027486753046
          ],
          [
            -118.75564201464971,
            37.39101081591974
          ],
          [
            -118.75570288444129,
            37.39098738154479
          ],
          [
            -118.7557549208995,
            37.39094830550317
          ],
          [
            -118.7557974792328,
            37.39091162633656
          ],
          [
            -118.75586042923271,
            37.39090168050325
          ],
          [
            -118.75591741985761,
            37.39087830446164
          ],
          [
            -118.75595914485757,
            37.390866421128294
          ],
          [
            -118.75600807298247,
            37.390845414878356
          ],
          [
            -118.75604867089908,
            37.39081552008673
          ],
          [
            -118.75608548131567,
            37.390774418003446
          ],
          [
            -118.75609945631567,
            37.390738162795174
          ],
          [
            -118.75611414277398,
            37.39070189092024
          ],
          [
            -118.7561598948572,
            37.39068093779525
          ],
          [
            -118.75619969902385,
            37.390662323211984
          ],
          [
            -118.7562397886071,
            37.39062567529538
          ],
          [
            -118.75629260839867,
            37.39062038987868
          ],
          [
            -118.75635990006526,
            37.3906148836287
          ],
          [
            -118.7563946563152,
            37.39059183571209
          ],
          [
            -118.7564197177735,
            37.39054640237879
          ],
          [
            -118.75645165214843,
            37.39052339717051
          ],
          [
            -118.75648715110674,
            37.39053188362885
          ],
          [
            -118.75651973339836,
            37.390551677378824
          ],
          [
            -118.75656650006493,
            37.390544227378825
          ],
          [
            -118.75659793027324,
            37.39051446904551
          ],
          [
            -118.75662600735649,
            37.39046222633726
          ],
          [
            -118.75667803860642,
            37.390423154462326
          ],
          [
            -118.75671232089803,
            37.39037983362908
          ],
          [
            -118.75676112610631,
            37.39033855237915
          ],
          [
            -118.75682162714787,
            37.39029935029589
          ],
          [
            -118.75685936777279,
            37.3902830180042
          ],
          [
            -118.75690316152276,
            37.39026885237922
          ],
          [
            -118.75693802298105,
            37.3902503117543
          ],
          [
            -118.75696350423101,
            37.39022289300431
          ],
          [
            -118.7569865646476,
            37.39019776696267
          ],
          [
            -118.75699746985595,
            37.39016605967106
          ],
          [
            -118.75701672402255,
            37.390113952379465
          ],
          [
            -118.75703639798087,
            37.39007985862952
          ],
          [
            -118.75706802402249,
            37.39004334196295
          ],
          [
            -118.75710884798076,
            37.39003822737959
          ],
          [
            -118.75715875839734,
            37.39004424821292
          ],
          [
            -118.7571919583973,
            37.3900753013379
          ],
          [
            -118.75723064589721,
            37.390099512796155
          ],
          [
            -118.75728937193884,
            37.390105402379504
          ],
          [
            -118.7573389667304,
            37.39009790550449
          ],
          [
            -118.75739519381364,
            37.39011735342115
          ],
          [
            -118.75745121152187,
            37.39012778779613
          ],
          [
            -118.75750524589682,
            37.3901292388378
          ],
          [
            -118.75754969902175,
            37.39017364404606
          ],
          [
            -118.75759699068834,
            37.39027884300424
          ],
          [
            -118.75762011464661,
            37.3903168055042
          ],
          [
            -118.75764740839656,
            37.390336682587474
          ],
          [
            -118.75766755214659,
            37.390367928420744
          ],
          [
            -118.75765679902156,
            37.39040638883739
          ],
          [
            -118.75769303652152,
            37.390446408628975
          ],
          [
            -118.75773447610482,
            37.39045255342063
          ],
          [
            -118.75778651881302,
            37.390474315920585
          ],
          [
            -118.75781980735468,
            37.39049410237891
          ],
          [
            -118.75785890110461,
            37.390520559670506
          ],
          [
            -118.75787228756292,
            37.39054965446212
          ],
          [
            -118.75784924485458,
            37.390590553420395
          ],
          [
            -118.75781697297964,
            37.390629332587025
          ],
          [
            -118.75775814797976,
            37.39067977946195
          ],
          [
            -118.75773463964646,
            37.390716176336866
          ],
          [
            -118.75771512089648,
            37.39075702321185
          ],
          [
            -118.75771585943818,
            37.390788557586745
          ],
          [
            -118.75774896047977,
            37.390815108628374
          ],
          [
            -118.75776128756308,
            37.39084421383666
          ],
          [
            -118.75776489902142,
            37.390877956544955
          ],
          [
            -118.7577426125631,
            37.39092110133657
          ],
          [
            -118.75769657714653,
            37.39096008987815
          ],
          [
            -118.75763859693825,
            37.39100150758645
          ],
          [
            -118.75759505631333,
            37.39101116487808
          ],
          [
            -118.75753626985511,
            37.39100302425311
          ],
          [
            -118.75749836985517,
            37.39101259821143
          ],
          [
            -118.75744351777189,
            37.391051712794706
          ],
          [
            -118.75739374485534,
            37.391081743002985
          ],
          [
            -118.757378002147,
            37.39111803050292
          ]
        ]
      }
    },
    {
      "type": "Feature",
      "properties": {
        "feature_id": "{C297D7C0-E296-46F8-B9E3-36D3A65ECDDD}",
        "name": "CHICKENFOOT LAKE",
        "distance_miles": 0.24964325,
        "source_originator": "U.S. Forest Service",
        "source_dataset_id": "{8CC4DB36-D0BE-4189-88C7-64C3569EB754}",
        "source_feature_id": "6532",
        "source_data_description": "USFS Trails Update 03/2026",
        "source_edit_date": 1774742400000,
        "load_date": 1777310283000,
        "trail_type": "Terra Trail",
        "trail_surface": "Unpaved Native"
      },
      "geometry": {
        "type": "LineString",
        "coordinates": [
          [
            -118.75488882715086,
            37.395501527371096
          ],
          [
            -118.75476979173442,
            37.39558777216263
          ],
          [
            -118.75475921360942,
            37.395636688829256
          ],
          [
            -118.75474519069274,
            37.395698603412484
          ],
          [
            -118.75472424173444,
            37.39574485237074
          ],
          [
            -118.75472685944277,
            37.39580158674568
          ],
          [
            -118.7547165229845,
            37.39584923466225
          ],
          [
            -118.75465258027623,
            37.39596456382873
          ],
          [
            -118.75464508652624,
            37.39600822216198
          ],
          [
            -118.75463155840129,
            37.39610995653686
          ],
          [
            -118.75462791465128,
            37.39612075445348
          ],
          [
            -118.75460657610967,
            37.396396485703065
          ],
          [
            -118.75461659694298,
            37.396430774244664
          ],
          [
            -118.75462668235963,
            37.396450935703
          ],
          [
            -118.75487940735923,
            37.39648076070296
          ],
          [
            -118.75487818340088,
            37.396485181536264
          ],
          [
            -118.75491596048414,
            37.396515038827886
          ],
          [
            -118.75492219798417,
            37.39668559195263
          ],
          [
            -118.75485885631758,
            37.39687089403566
          ],
          [
            -118.75484514381759,
            37.39693380653557
          ],
          [
            -118.75484813444262,
            37.39699823257712
          ],
          [
            -118.75483805423431,
            37.39704059299373
          ],
          [
            -118.75478016673435,
            37.39715473153524
          ],
          [
            -118.7547479917344,
            37.39720794507679
          ],
          [
            -118.75470078235952,
            37.39724500757677
          ],
          [
            -118.75464734902624,
            37.39732680340995
          ],
          [
            -118.75463582506791,
            37.397411502368186
          ],
          [
            -118.75460879590133,
            37.397453362784745
          ],
          [
            -118.75455607194306,
            37.397501955493
          ],
          [
            -118.75449860735984,
            37.39760992736785
          ],
          [
            -118.75445156465156,
            37.39767324299277
          ],
          [
            -118.75436560319338,
            37.39774051486762
          ],
          [
            -118.75430929173513,
            37.39778215445091
          ],
          [
            -118.75424611048521,
            37.39780993674253
          ],
          [
            -118.75409308444375,
            37.39787988674243
          ],
          [
            -118.75404378652718,
            37.39789068361739
          ],
          [
            -118.75396618444398,
            37.39786256695078
          ],
          [
            -118.75391516673574,
            37.397855552367446
          ],
          [
            -118.75386294486077,
            37.39783723570082
          ],
          [
            -118.75379420631924,
            37.397819376325856
          ],
          [
            -118.75377128652758,
            37.397810299242565
          ],
          [
            -118.75364494173613,
            37.39780288778422
          ],
          [
            -118.75357733548623,
            37.39783629507582
          ],
          [
            -118.75351775527798,
            37.39786540445078
          ],
          [
            -118.75345414694476,
            37.39788476590911
          ],
          [
            -118.75338412194486,
            37.397903394034074
          ],
          [
            -118.75324217507011,
            37.39799487424227
          ]
        ]
      }
    },
    {
      "type": "Feature",
      "properties": {
        "feature_id": "{3C15C944-1789-4DAD-8829-C2C8210F623B}",
        "name": "UPPER ROCK CREEK CANYON",
        "distance_miles": 0.9721758,
        "source_originator": "U.S. Forest Service",
        "source_dataset_id": "{8CC4DB36-D0BE-4189-88C7-64C3569EB754}",
        "source_feature_id": "5666",
        "source_data_description": "USFS Trails Update 03/2026",
        "source_edit_date": 1774742400000,
        "load_date": 1777310283000,
        "trail_type": "Terra Trail",
        "trail_surface": "Unpaved Native"
      },
      "geometry": {
        "type": "LineString",
        "coordinates": [
          [
            -118.735476424056,
            37.45643218040152
          ],
          [
            -118.73551941363928,
            37.45644960748484
          ],
          [
            -118.73559024593084,
            37.45633027311004
          ],
          [
            -118.73563953030578,
            37.45629688040174
          ],
          [
            -118.73574512822228,
            37.45615788873533
          ],
          [
            -118.73576578551388,
            37.456119279360394
          ],
          [
            -118.73576533134724,
            37.456053944985456
          ],
          [
            -118.7358364938471,
            37.456014599152184
          ],
          [
            -118.73584263551379,
            37.45592888769397
          ],
          [
            -118.7358539928054,
            37.4558701397774
          ],
          [
            -118.73588770843037,
            37.45581556686085
          ],
          [
            -118.73586179593042,
            37.455779893944225
          ],
          [
            -118.7358406730138,
            37.45573739498593
          ],
          [
            -118.7358776053054,
            37.455669254361055
          ],
          [
            -118.735911721972,
            37.45561693248612
          ],
          [
            -118.73592782822197,
            37.45556487415291
          ],
          [
            -118.7359791646802,
            37.45553560956961
          ],
          [
            -118.73612336155497,
            37.45551608561129
          ],
          [
            -118.73625577717979,
            37.455492463736334
          ],
          [
            -118.73632465113803,
            37.455487018944666
          ],
          [
            -118.73640198134626,
            37.45547454602803
          ],
          [
            -118.73642611259618,
            37.45549447206969
          ],
          [
            -118.73659518863758,
            37.455564092902875
          ],
          [
            -118.73667063238747,
            37.45558776998621
          ],
          [
            -118.73681815738723,
            37.4555810949862
          ],
          [
            -118.73687445217882,
            37.45557125644456
          ],
          [
            -118.73694317822037,
            37.45557925956956
          ],
          [
            -118.737000238637,
            37.45557166165287
          ],
          [
            -118.7373103667615,
            37.455553591861246
          ],
          [
            -118.73739461467801,
            37.45560642623616
          ],
          [
            -118.73754234905277,
            37.45574620956927
          ],
          [
            -118.73754233446948,
            37.45579127623586
          ],
          [
            -118.73769078967757,
            37.45600982727723
          ],
          [
            -118.73779952196907,
            37.4560804085271
          ],
          [
            -118.73786047717732,
            37.45608852519376
          ],
          [
            -118.7379607125938,
            37.45612986686035
          ],
          [
            -118.73802765738537,
            37.45619388456856
          ],
          [
            -118.73815472821849,
            37.45618677102692
          ],
          [
            -118.73827250321835,
            37.45616285748531
          ],
          [
            -118.73837356363487,
            37.456126842901995
          ],
          [
            -118.7384552021764,
            37.45607527102709
          ],
          [
            -118.73852732925963,
            37.456044216860505
          ],
          [
            -118.73857442092617,
            37.4560343408188
          ],
          [
            -118.73861227092613,
            37.45603037519385
          ],
          [
            -118.73866430425937,
            37.456019426235514
          ],
          [
            -118.73869616050933,
            37.456005996027216
          ],
          [
            -118.73873049800926,
            37.45599432415224
          ],
          [
            -118.73877593550924,
            37.455977242902236
          ],
          [
            -118.7388362584258,
            37.455955193943964
          ],
          [
            -118.73887447925904,
            37.45593725123564
          ],
          [
            -118.73891429800898,
            37.45591855540232
          ],
          [
            -118.7389691178006,
            37.45586390227743
          ],
          [
            -118.73898969280054,
            37.45584338977744
          ],
          [
            -118.73904823134211,
            37.455776015819254
          ],
          [
            -118.7390920428004,
            37.455716064777675
          ],
          [
            -118.73912934800865,
            37.45565815644443
          ],
          [
            -118.73922067196685,
            37.45559879186118
          ],
          [
            -118.73926767821678,
            37.45552233456965
          ],
          [
            -118.73927488342508,
            37.45551061477795
          ],
          [
            -118.73932374071671,
            37.45540372102812
          ],
          [
            -118.73934304384164,
            37.455334024153274
          ],
          [
            -118.73935637404998,
            37.45528589394502
          ],
          [
            -118.73937987300826,
            37.45517104394514
          ],
          [
            -118.73940401675821,
            37.45506801477865
          ],
          [
            -118.73940952092488,
            37.455052804362026
          ],
          [
            -118.73942094904987,
            37.455021216862065
          ],
          [
            -118.7394394230082,
            37.45497015540383
          ],
          [
            -118.73943923134152,
            37.454938448112216
          ],
          [
            -118.73945257300818,
            37.454891219987246
          ],
          [
            -118.7393950844666,
            37.454804189779054
          ],
          [
            -118.73932825530005,
            37.454771375195776
          ],
          [
            -118.73927005321679,
            37.45472941790416
          ],
          [
            -118.73922434800852,
            37.454678267904285
          ],
          [
            -118.73921443342522,
            37.45464686998764
          ],
          [
            -118.7392053750919,
            37.45460481686274
          ],
          [
            -118.73924261259185,
            37.45455182102944
          ],
          [
            -118.7392250761335,
            37.45451152102953
          ],
          [
            -118.73914726050862,
            37.454431551237974
          ],
          [
            -118.73903073342547,
            37.454370233529744
          ],
          [
            -118.73895456571728,
            37.45428792832155
          ],
          [
            -118.73890049488404,
            37.45424140540496
          ],
          [
            -118.73881600634246,
            37.45422821165499
          ],
          [
            -118.73878954905086,
            37.454179946030024
          ],
          [
            -118.73882058967581,
            37.454132173113464
          ],
          [
            -118.73880233550915,
            37.45407611165518
          ],
          [
            -118.73877399071756,
            37.45402695853028
          ],
          [
            -118.73880040530082,
            37.45393193561375
          ],
          [
            -118.7388394386341,
            37.45384799603056
          ],
          [
            -118.73888551259239,
            37.45379324186399
          ],
          [
            -118.7388794157174,
            37.453743761655744
          ],
          [
            -118.73883533759243,
            37.45370159707244
          ],
          [
            -118.73881971780082,
            37.45366802936417
          ],
          [
            -118.73880121675916,
            37.45361648040591
          ],
          [
            -118.73878493134254,
            37.453569402281005
          ],
          [
            -118.73878367613423,
            37.45351534290609
          ],
          [
            -118.7387779917592,
            37.453468108531126
          ],
          [
            -118.73876361467592,
            37.45341199082293
          ],
          [
            -118.73876519071757,
            37.45335788978133
          ],
          [
            -118.7387773553009,
            37.453303638739726
          ],
          [
            -118.73879056571752,
            37.4532335939482
          ],
          [
            -118.73878931259253,
            37.45317953457328
          ],
          [
            -118.73877777821752,
            37.45313914707333
          ],
          [
            -118.73877941988422,
            37.45310306999005
          ],
          [
            -118.73877795634257,
            37.45304000749013
          ],
          [
            -118.7387885250925,
            37.45300830644851
          ],
          [
            -118.73877901675922,
            37.4529791522819
          ],
          [
            -118.73878428655087,
            37.452947531448615
          ],
          [
            -118.73880729800919,
            37.45288861061539
          ],
          [
            -118.73882199800914,
            37.45285234082377
          ],
          [
            -118.73884376988411,
            37.45281597311549
          ],
          [
            -118.7388726000924,
            37.452779496032235
          ],
          [
            -118.73890651571736,
            37.45273393561564
          ],
          [
            -118.73904386259215,
            37.45256292936591
          ],
          [
            -118.73911484800868,
            37.45250104707429
          ],
          [
            -118.73914882196698,
            37.45245773874103
          ],
          [
            -118.7391821875919,
            37.4524189429078
          ],
          [
            -118.73921603134187,
            37.452339583532876
          ],
          [
            -118.73923758550848,
            37.452294202282985
          ],
          [
            -118.73925601780013,
            37.45225112103304
          ],
          [
            -118.73928584175843,
            37.45219660540812
          ],
          [
            -118.73931340321673,
            37.4521511387415
          ],
          [
            -118.73936366988329,
            37.45210984290827
          ],
          [
            -118.73939608238328,
            37.452075564783286
          ],
          [
            -118.7394319636332,
            37.452023216866735
          ],
          [
            -118.73947026259145,
            37.45196857520017
          ],
          [
            -118.73952404696638,
            37.45191145436689
          ],
          [
            -118.73955384904968,
            37.451886232491916
          ],
          [
            -118.7396007646746,
            37.45182245332535
          ],
          [
            -118.73965806884121,
            37.451749508533794
          ],
          [
            -118.73974450113269,
            37.45137871582608
          ],
          [
            -118.73975219488273,
            37.45134480540946
          ],
          [
            -118.73974396779937,
            37.451218747076325
          ],
          [
            -118.7397522355077,
            37.45114877520143
          ],
          [
            -118.73975921988267,
            37.451063285618204
          ],
          [
            -118.73981396779925,
            37.45093156166007
          ],
          [
            -118.7398413125909,
            37.45087708666017
          ],
          [
            -118.73987885425748,
            37.4508202043686
          ],
          [
            -118.74000654175728,
            37.45075072936868
          ],
          [
            -118.74008673238217,
            37.45072025645209
          ],
          [
            -118.74014326675712,
            37.450690136660455
          ],
          [
            -118.74019872717366,
            37.45064425541051
          ],
          [
            -118.74025953446522,
            37.45060055124395
          ],
          [
            -118.74030489175686,
            37.45054580645234
          ],
          [
            -118.74033294800682,
            37.45049131686909
          ],
          [
            -118.7403637240484,
            37.450432282494205
          ],
          [
            -118.74037816884004,
            37.45038475124426
          ],
          [
            -118.74034643863178,
            37.45032663874434
          ],
          [
            -118.74033838029845,
            37.450283942911085
          ],
          [
            -118.74033299592344,
            37.45023445228617
          ],
          [
            -118.74031342925684,
            37.45018291895292
          ],
          [
            -118.7403036052985,
            37.450140249161336
          ],
          [
            -118.74028041779854,
            37.45010003457804
          ],
          [
            -118.74026145217357,
            37.45004398353649
          ],
          [
            -118.74022216154862,
            37.44999499291151
          ],
          [
            -118.7400526584239,
            37.4497541429119
          ],
          [
            -118.73997265842405,
            37.44961758041211
          ],
          [
            -118.73988184071584,
            37.44950891999565
          ],
          [
            -118.73970193550775,
            37.44936636999586
          ],
          [
            -118.73948443238311,
            37.449268373121015
          ],
          [
            -118.73918488967524,
            37.44920238457945
          ],
          [
            -118.7388352865508,
            37.44911953041287
          ],
          [
            -118.73847587300969,
            37.4490896199963
          ],
          [
            -118.73819369592678,
            37.44905857207965
          ],
          [
            -118.73770841155255,
            37.4490745106213
          ],
          [
            -118.73737279592808,
            37.44911904499622
          ],
          [
            -118.73714883967841,
            37.449219137704404
          ],
          [
            -118.73695165634535,
            37.449283635620986
          ],
          [
            -118.7367364948874,
            37.449286798120966
          ],
          [
            -118.73644057301283,
            37.44922799707939
          ]
        ]
      }
    },
    {
      "type": "Feature",
      "properties": {
        "feature_id": "{0500C798-6A11-47BC-9AD4-159143D827CF}",
        "name": "UPPER ROCK CREEK CANYON",
        "distance_miles": 0.5015364600000001,
        "source_originator": "U.S. Forest Service",
        "source_dataset_id": "{8CC4DB36-D0BE-4189-88C7-64C3569EB754}",
        "source_feature_id": "5666",
        "source_data_description": "USFS Trails Update 03/2026",
        "source_edit_date": 1774742400000,
        "load_date": 1777310283000,
        "trail_type": "Terra Trail",
        "trail_surface": "Unpaved Native"
      },
      "geometry": {
        "type": "LineString",
        "coordinates": [
          [
            -118.73043509593884,
            37.46069023456158
          ],
          [
            -118.73065096885517,
            37.46064426789502
          ],
          [
            -118.73063720531354,
            37.46058363039509
          ],
          [
            -118.73080698031328,
            37.460560871020164
          ],
          [
            -118.73083436364652,
            37.460537937686865
          ],
          [
            -118.73086921260483,
            37.460517147061864
          ],
          [
            -118.73090793864645,
            37.46048053039527
          ],
          [
            -118.7310007782296,
            37.46040030956203
          ],
          [
            -118.73102129385461,
            37.460370717895444
          ],
          [
            -118.73105503135451,
            37.46034769497879
          ],
          [
            -118.73189854385322,
            37.45978782102134
          ],
          [
            -118.73173898968679,
            37.45956483872999
          ],
          [
            -118.73172470635348,
            37.45948168143849
          ],
          [
            -118.73199402614472,
            37.45945520643852
          ],
          [
            -118.73201847510302,
            37.459427810605234
          ],
          [
            -118.73200360947806,
            37.459380711646986
          ],
          [
            -118.7319038719782,
            37.45933034602206
          ],
          [
            -118.73185865426996,
            37.4593152356054
          ],
          [
            -118.73179820114507,
            37.459237258522194
          ],
          [
            -118.7318310251033,
            37.4592052324806
          ],
          [
            -118.73187763135326,
            37.45911217206407
          ],
          [
            -118.73213003031123,
            37.45913326164737
          ],
          [
            -118.7322251948944,
            37.45906201789745
          ],
          [
            -118.73247755531065,
            37.458821739772816
          ],
          [
            -118.73234911676917,
            37.45870645435633
          ],
          [
            -118.73227862822762,
            37.45867891060641
          ],
          [
            -118.7322163501027,
            37.45854166060661
          ],
          [
            -118.73234643760253,
            37.45826937831538
          ],
          [
            -118.73241130635245,
            37.45824814602372
          ],
          [
            -118.73245560531069,
            37.45810104081562
          ],
          [
            -118.73252177510227,
            37.458059515815705
          ],
          [
            -118.73257245426885,
            37.458020467899075
          ],
          [
            -118.73262798239375,
            37.45799261789915
          ],
          [
            -118.73267341885202,
            37.457955900190825
          ],
          [
            -118.73269882406032,
            37.457923982482555
          ],
          [
            -118.73273677822692,
            37.457869348107636
          ],
          [
            -118.7327667032269,
            37.45780356789942
          ],
          [
            -118.73282031572677,
            37.45776898769111
          ],
          [
            -118.73284611676843,
            37.4577235439412
          ],
          [
            -118.73288621260167,
            37.45770042831623
          ],
          [
            -118.73287443135172,
            37.457664547066315
          ],
          [
            -118.73296241676826,
            37.45758890435809
          ],
          [
            -118.7330622355181,
            37.45753561581648
          ],
          [
            -118.73307699176809,
            37.457501602274874
          ],
          [
            -118.73310449697635,
            37.45743811060834
          ],
          [
            -118.73313965530963,
            37.45737880019175
          ],
          [
            -118.73325288760111,
            37.45730074394186
          ],
          [
            -118.73336688030929,
            37.45729061373356
          ],
          [
            -118.73357696260064,
            37.45728753040021
          ],
          [
            -118.73375335218367,
            37.457243603316954
          ],
          [
            -118.73386901260017,
            37.45717010644205
          ],
          [
            -118.73393363968341,
            37.45713217102548
          ],
          [
            -118.73401667718326,
            37.45708451373389
          ],
          [
            -118.73408927301648,
            37.457016749150625
          ],
          [
            -118.73414060843305,
            37.45699423873401
          ],
          [
            -118.73424550947459,
            37.45697300435904
          ],
          [
            -118.73438186364103,
            37.45694171685909
          ],
          [
            -118.73452354801583,
            37.45691246685914
          ],
          [
            -118.73464463134894,
            37.45685560644256
          ],
          [
            -118.73500314697338,
            37.456761826234356
          ],
          [
            -118.73516532926482,
            37.45640072310994
          ],
          [
            -118.73537996155613,
            37.45639307102658
          ],
          [
            -118.735476424056,
            37.45643218040152
          ]
        ]
      }
    },
    {
      "type": "Feature",
      "properties": {
        "feature_id": "{099FF979-9114-4447-BEAB-22BA72F5689B}",
        "name": "UPPER ROCK CREEK CANYON",
        "distance_miles": 0.24908119,
        "source_originator": "U.S. Forest Service",
        "source_dataset_id": "{8CC4DB36-D0BE-4189-88C7-64C3569EB754}",
        "source_feature_id": "5666",
        "source_data_description": "USFS Trails Update 03/2026",
        "source_edit_date": 1774742400000,
        "load_date": 1777310283000,
        "trail_type": "Terra Trail",
        "trail_surface": "Unpaved Native"
      },
      "geometry": {
        "type": "LineString",
        "coordinates": [
          [
            -118.72788863552614,
            37.46314623559948
          ],
          [
            -118.72788986677614,
            37.46311581893286
          ],
          [
            -118.72789809594275,
            37.4630435980996
          ],
          [
            -118.72792768344272,
            37.462993594974705
          ],
          [
            -118.72793628448437,
            37.462952913724735
          ],
          [
            -118.72797709073433,
            37.46292978455813
          ],
          [
            -118.72801877823423,
            37.46286834184991
          ],
          [
            -118.72807613552584,
            37.462842718933246
          ],
          [
            -118.72812995115072,
            37.462801376225
          ],
          [
            -118.72819876573396,
            37.46278234289167
          ],
          [
            -118.72824139802555,
            37.46270060539183
          ],
          [
            -118.72831903344212,
            37.46266567310022
          ],
          [
            -118.72837867302536,
            37.46258594080865
          ],
          [
            -118.72853610219175,
            37.462502525183766
          ],
          [
            -118.72870745739982,
            37.462349057475706
          ],
          [
            -118.72876283031644,
            37.46229867830908
          ],
          [
            -118.7288419803163,
            37.46226822830914
          ],
          [
            -118.72896123031614,
            37.462214664767544
          ],
          [
            -118.72899700427439,
            37.46221864601756
          ],
          [
            -118.72901083344107,
            37.46214408976766
          ],
          [
            -118.72920019489908,
            37.46212780018436
          ],
          [
            -118.72917952823246,
            37.46193658664299
          ],
          [
            -118.72919730323241,
            37.46187999705978
          ],
          [
            -118.72928548031564,
            37.46184265435147
          ],
          [
            -118.72945976469032,
            37.46184686685149
          ],
          [
            -118.72951358031526,
            37.461805522059876
          ],
          [
            -118.72959684177346,
            37.46181556997652
          ],
          [
            -118.72969835114833,
            37.46165185643514
          ],
          [
            -118.72975633968986,
            37.461592427268556
          ],
          [
            -118.72981899385644,
            37.46156672622692
          ],
          [
            -118.72986776156472,
            37.461536721018604
          ],
          [
            -118.72987589698135,
            37.46147576372704
          ],
          [
            -118.72988706677302,
            37.46142377831046
          ],
          [
            -118.72994434177292,
            37.46136435956055
          ],
          [
            -118.72998973135617,
            37.4613253908106
          ],
          [
            -118.73003925114779,
            37.461281852268996
          ],
          [
            -118.7300539001061,
            37.4612275647691
          ],
          [
            -118.73004774593943,
            37.461160057477514
          ],
          [
            -118.73020967614752,
            37.46110361164432
          ],
          [
            -118.73021660531418,
            37.46105168976936
          ],
          [
            -118.73022307823084,
            37.460995263727796
          ],
          [
            -118.73028623448073,
            37.46097631685285
          ],
          [
            -118.73032369593898,
            37.460930702269536
          ],
          [
            -118.73031335739734,
            37.460865512686325
          ],
          [
            -118.73030934906404,
            37.460829517894695
          ],
          [
            -118.73040472406387,
            37.46076728976982
          ],
          [
            -118.73043509593884,
            37.46069023456158
          ]
        ]
      }
    },
    {
      "type": "Feature",
      "properties": {
        "feature_id": "{A4E553CF-B147-41D3-B0C9-32BBB5B3B43D}",
        "name": "UPPER ROCK CREEK CANYON",
        "distance_miles": 0.4895605900000001,
        "source_originator": "U.S. Forest Service",
        "source_dataset_id": "{8CC4DB36-D0BE-4189-88C7-64C3569EB754}",
        "source_feature_id": "2773",
        "source_data_description": "USFS Trails Update 03/2026",
        "source_edit_date": 1774742400000,
        "load_date": 1777310283000,
        "trail_type": "Terra Trail",
        "trail_surface": "Unpaved Native"
      },
      "geometry": {
        "type": "LineString",
        "coordinates": [
          [
            -118.7247143844894,
            37.46854413767443
          ],
          [
            -118.7247115553227,
            37.46837833559135
          ],
          [
            -118.72473618865598,
            37.46814364600834
          ],
          [
            -118.72485452511415,
            37.46814191996668
          ],
          [
            -118.72489512719744,
            37.46810978246674
          ],
          [
            -118.72492073657241,
            37.467994499133624
          ],
          [
            -118.72502998032223,
            37.46788925850876
          ],
          [
            -118.7250390834472,
            37.46783955642553
          ],
          [
            -118.7251470761554,
            37.46768025642575
          ],
          [
            -118.72507871469713,
            37.467627175175835
          ],
          [
            -118.72512962407205,
            37.467536306425984
          ],
          [
            -118.72516006573869,
            37.467477281426056
          ],
          [
            -118.72515221782203,
            37.467427827259485
          ],
          [
            -118.72516686678034,
            37.46737353559291
          ],
          [
            -118.72520758865528,
            37.46728506788469
          ],
          [
            -118.72520593969693,
            37.46722876163477
          ],
          [
            -118.72519845115528,
            37.46711846371829
          ],
          [
            -118.72530010636348,
            37.46715979080159
          ],
          [
            -118.72535428136337,
            37.46711844288495
          ],
          [
            -118.72542606990493,
            37.46709035955166
          ],
          [
            -118.72547452719652,
            37.46703107101007
          ],
          [
            -118.72551350011315,
            37.46697417309349
          ],
          [
            -118.72555701782142,
            37.46693072413524
          ],
          [
            -118.72562739698793,
            37.46682605121873
          ],
          [
            -118.72566156052955,
            37.46682104809378
          ],
          [
            -118.72565223136291,
            37.466753585593835
          ],
          [
            -118.72565720219626,
            37.46670845330226
          ],
          [
            -118.72566606573793,
            37.46667903038565
          ],
          [
            -118.72566638761288,
            37.46663170746905
          ],
          [
            -118.72568634698786,
            37.4665931116358
          ],
          [
            -118.72571215115448,
            37.466547674135825
          ],
          [
            -118.72573135115448,
            37.46650683767757
          ],
          [
            -118.72583632927928,
            37.46637011371945
          ],
          [
            -118.7258860740709,
            37.466274754344624
          ],
          [
            -118.72592520844586,
            37.46614800226149
          ],
          [
            -118.72607078761229,
            37.46607152517828
          ],
          [
            -118.72614880115384,
            37.46606813351161
          ],
          [
            -118.72619418344539,
            37.466013393928336
          ],
          [
            -118.72626441365361,
            37.465994344970056
          ],
          [
            -118.7264216167784,
            37.4659469835118
          ],
          [
            -118.72645818761168,
            37.46592391788681
          ],
          [
            -118.72646956365332,
            37.46588094392854
          ],
          [
            -118.7265433615699,
            37.46583255017862
          ],
          [
            -118.72661543136144,
            37.465617442887265
          ],
          [
            -118.72662326469475,
            37.465711962678824
          ],
          [
            -118.726682307403,
            37.465713353303784
          ],
          [
            -118.7267294959446,
            37.46564507101226
          ],
          [
            -118.72675717198621,
            37.465604109553965
          ],
          [
            -118.7268025605278,
            37.465488535595796
          ],
          [
            -118.72678108656947,
            37.46544603663756
          ],
          [
            -118.72679861573613,
            37.465393958512664
          ],
          [
            -118.72675903136121,
            37.465270609554466
          ],
          [
            -118.72689662719432,
            37.46526183976283
          ],
          [
            -118.72695087094422,
            37.46525429184618
          ],
          [
            -118.72696768344423,
            37.465186449137946
          ],
          [
            -118.72699429594417,
            37.46514550330471
          ],
          [
            -118.72700143552748,
            37.46510258976309
          ],
          [
            -118.72713593656897,
            37.46514343559636
          ],
          [
            -118.7271332542773,
            37.46496547309664
          ],
          [
            -118.7271260949023,
            37.46490023559676
          ],
          [
            -118.7271332251106,
            37.464841546013474
          ],
          [
            -118.72716267823557,
            37.46473972518032
          ],
          [
            -118.72721200427719,
            37.464702952263735
          ],
          [
            -118.72721530740216,
            37.46466234705542
          ],
          [
            -118.72726152927709,
            37.464582809555566
          ],
          [
            -118.72731672823534,
            37.46449412934737
          ],
          [
            -118.72737595531856,
            37.46447298768072
          ],
          [
            -118.7273948324019,
            37.464402862680856
          ],
          [
            -118.72740060011023,
            37.464346448097615
          ],
          [
            -118.72739309906854,
            37.464296987680996
          ],
          [
            -118.72740522094352,
            37.46424048143109
          ],
          [
            -118.72742849490186,
            37.46417705226452
          ],
          [
            -118.72741310740184,
            37.46410742622294
          ],
          [
            -118.72742770636017,
            37.464050883514744
          ],
          [
            -118.72744239906848,
            37.463983076223144
          ],
          [
            -118.72747759281845,
            37.463946509556536
          ],
          [
            -118.72754233865163,
            37.46387346163999
          ],
          [
            -118.72756103969328,
            37.46384164289003
          ],
          [
            -118.72758048656829,
            37.46387290434831
          ],
          [
            -118.7276100376099,
            37.46385219601501
          ],
          [
            -118.72766925010978,
            37.46372289914024
          ],
          [
            -118.72764025323482,
            37.463522789765534
          ],
          [
            -118.72784362615118,
            37.46347024914064
          ],
          [
            -118.72787123552615,
            37.46341126059906
          ],
          [
            -118.7278801865678,
            37.46335480018246
          ],
          [
            -118.72788861365109,
            37.46314674601615
          ]
        ]
      }
    },
    {
      "type": "Feature",
      "properties": {
        "feature_id": "{1A764789-E62E-4CEA-A1F4-40B2AB50BF99}",
        "name": "UPPER ROCK CREEK CANYON",
        "distance_miles": 0.00201986,
        "source_originator": "U.S. Forest Service",
        "source_dataset_id": "{8CC4DB36-D0BE-4189-88C7-64C3569EB754}",
        "source_feature_id": "2773",
        "source_data_description": "USFS Trails Update 03/2026",
        "source_edit_date": 1774742400000,
        "load_date": 1777310283000,
        "trail_type": "Terra Trail",
        "trail_surface": "Unpaved Native"
      },
      "geometry": {
        "type": "LineString",
        "coordinates": [
          [
            -118.72473565532266,
            37.46855289809105
          ],
          [
            -118.72471459178104,
            37.468556296007705
          ],
          [
            -118.7247143844894,
            37.46854413767443
          ]
        ]
      }
    },
    {
      "type": "Feature",
      "properties": {
        "feature_id": "{073E332C-4341-408D-92AC-845FC37D555B}",
        "name": "UPPER ROCK CREEK CANYON",
        "distance_miles": 0.00634905,
        "source_originator": "U.S. Forest Service",
        "source_dataset_id": "{8CC4DB36-D0BE-4189-88C7-64C3569EB754}",
        "source_feature_id": "2773",
        "source_data_description": "USFS Trails Update 03/2026",
        "source_edit_date": 1774742400000,
        "load_date": 1777310283000,
        "trail_type": "Terra Trail",
        "trail_surface": "Unpaved Native"
      },
      "geometry": {
        "type": "LineString",
        "coordinates": [
          [
            -118.72484678032248,
            37.46856963038272
          ],
          [
            -118.72482465740586,
            37.4685637001744
          ],
          [
            -118.7247607063643,
            37.468548860591056
          ],
          [
            -118.72473565532266,
            37.46855289809105
          ]
        ]
      }
    },
    {
      "type": "Feature",
      "properties": {
        "feature_id": "{56BACCE0-70FF-443D-9D81-740998FEFB38}",
        "name": "UPPER ROCK CREEK CANYON",
        "distance_miles": 0.13123807,
        "source_originator": "U.S. Forest Service",
        "source_dataset_id": "{8CC4DB36-D0BE-4189-88C7-64C3569EB754}",
        "source_feature_id": "2773",
        "source_data_description": "USFS Trails Update 03/2026",
        "source_edit_date": 1774742400000,
        "load_date": 1777310283000,
        "trail_type": "Terra Trail",
        "trail_surface": "Unpaved Native"
      },
      "geometry": {
        "type": "LineString",
        "coordinates": [
          [
            -118.72426325844839,
            37.47018649079689
          ],
          [
            -118.72437798657324,
            37.4701136460053
          ],
          [
            -118.72442182928148,
            37.47009949183865
          ],
          [
            -118.72442836157313,
            37.46996870850552
          ],
          [
            -118.72440990115649,
            37.46990363558899
          ],
          [
            -118.72446325740646,
            37.46984202413074
          ],
          [
            -118.72450286678139,
            37.469751315797566
          ],
          [
            -118.72454104073967,
            37.46970569913094
          ],
          [
            -118.72460129594788,
            37.46954484392285
          ],
          [
            -118.72461570115621,
            37.46949506371459
          ],
          [
            -118.72465219594778,
            37.4694382012147
          ],
          [
            -118.72466796053112,
            37.46938614704811
          ],
          [
            -118.72470760011441,
            37.469342760589825
          ],
          [
            -118.72477579907263,
            37.469296699131576
          ],
          [
            -118.72479556053094,
            37.46926486683998
          ],
          [
            -118.72478787198924,
            37.46923794183999
          ],
          [
            -118.72481459698923,
            37.46920149809006
          ],
          [
            -118.7248226032392,
            37.46908872413189
          ],
          [
            -118.72483955323918,
            37.46899609809037
          ],
          [
            -118.72487666782246,
            37.46887388559054
          ],
          [
            -118.72492146157236,
            37.46883943142393
          ],
          [
            -118.72492697719736,
            37.468787529340716
          ],
          [
            -118.72495341053065,
            37.468769119965714
          ],
          [
            -118.72495028761404,
            37.468694806424196
          ],
          [
            -118.72495070428067,
            37.468636218924246
          ],
          [
            -118.7249432136557,
            37.468602531424324
          ],
          [
            -118.72492104490573,
            37.468575818924364
          ],
          [
            -118.7249009303224,
            37.46860765121596
          ],
          [
            -118.7248804751141,
            37.468578661632705
          ],
          [
            -118.72484678032248,
            37.46856963038272
          ]
        ]
      }
    },
    {
      "type": "Feature",
      "properties": {
        "feature_id": "{2F35523A-5D9E-4E4B-9313-A038973D21EE}",
        "name": "UPPER ROCK CREEK CANYON",
        "distance_miles": 1.2676207000000002,
        "source_originator": "U.S. Forest Service",
        "source_dataset_id": "{8CC4DB36-D0BE-4189-88C7-64C3569EB754}",
        "source_feature_id": "2773",
        "source_data_description": "USFS Trails Update 03/2026",
        "source_edit_date": 1774742400000,
        "load_date": 1777310283000,
        "trail_type": "Terra Trail",
        "trail_surface": "Unpaved Native"
      },
      "geometry": {
        "type": "LineString",
        "coordinates": [
          [
            -118.71859209908223,
            37.485104801190346
          ],
          [
            -118.7186957355404,
            37.485080904315396
          ],
          [
            -118.71873506679032,
            37.48510061473206
          ],
          [
            -118.71890510637337,
            37.48499449702388
          ],
          [
            -118.71899402928995,
            37.48488054494072
          ],
          [
            -118.71905183762317,
            37.48481211056583
          ],
          [
            -118.71956668658072,
            37.48400699598375
          ],
          [
            -118.71963565637225,
            37.48387080223398
          ],
          [
            -118.71970564699717,
            37.48384049077566
          ],
          [
            -118.71973818137212,
            37.48379495640074
          ],
          [
            -118.7196968584555,
            37.48364234181764
          ],
          [
            -118.71965680428889,
            37.48359109910939
          ],
          [
            -118.71960751991395,
            37.48355350952613
          ],
          [
            -118.71956323866402,
            37.48351810535951
          ],
          [
            -118.71957882512237,
            37.48322721890162
          ],
          [
            -118.71963645845557,
            37.483212859526645
          ],
          [
            -118.71963763762227,
            37.483156513693416
          ],
          [
            -118.71961940116392,
            37.48313199494345
          ],
          [
            -118.7196153876223,
            37.48308022723518
          ],
          [
            -118.71956844387239,
            37.48306739286022
          ],
          [
            -118.71957584908068,
            37.48295913036037
          ],
          [
            -118.71951103241412,
            37.48284516265221
          ],
          [
            -118.7194718969975,
            37.482802917860624
          ],
          [
            -118.71947350533082,
            37.48270375640243
          ],
          [
            -118.71936162720601,
            37.48264905431921
          ],
          [
            -118.71935195949771,
            37.48259737306927
          ],
          [
            -118.71946470845586,
            37.48248983036109
          ],
          [
            -118.71947977720583,
            37.482361180361295
          ],
          [
            -118.71953427512244,
            37.482333351194654
          ],
          [
            -118.7195896188723,
            37.482296492861394
          ],
          [
            -118.71981660637198,
            37.482223347028196
          ],
          [
            -118.71982194178861,
            37.48219397515322
          ],
          [
            -118.71987341053858,
            37.48217295119491
          ],
          [
            -118.7199444157468,
            37.48215614598661
          ],
          [
            -118.71998458866341,
            37.4821510532783
          ],
          [
            -118.72047421887095,
            37.48188030744535
          ],
          [
            -118.72053513345418,
            37.481870408487055
          ],
          [
            -118.72059589178741,
            37.481853753278756
          ],
          [
            -118.72064326053737,
            37.48180799807051
          ],
          [
            -118.72067184074564,
            37.4817444970289
          ],
          [
            -118.72065919178732,
            37.4816860949457
          ],
          [
            -118.72067963137061,
            37.48149878452932
          ],
          [
            -118.72072456470391,
            37.48143955015439
          ],
          [
            -118.72077793032884,
            37.48128555327963
          ],
          [
            -118.72073485428723,
            37.48124111890468
          ],
          [
            -118.72081501678707,
            37.48117686265482
          ],
          [
            -118.7208638584537,
            37.48114911577983
          ],
          [
            -118.72083726991207,
            37.48108415640496
          ],
          [
            -118.72092099491192,
            37.481067164738306
          ],
          [
            -118.72098049387017,
            37.4809649105718
          ],
          [
            -118.72100479074516,
            37.48091498661353
          ],
          [
            -118.72105858032836,
            37.48088716265528
          ],
          [
            -118.72117800428651,
            37.48090119703022
          ],
          [
            -118.72121982928644,
            37.480875804321954
          ],
          [
            -118.72118793761985,
            37.48079515432204
          ],
          [
            -118.72116761678654,
            37.48074137203048
          ],
          [
            -118.72120787928651,
            37.48063263661396
          ],
          [
            -118.72120129699482,
            37.48059217515572
          ],
          [
            -118.7212931469947,
            37.48040607723931
          ],
          [
            -118.72133053657797,
            37.48038750432272
          ],
          [
            -118.72141245428617,
            37.480307454322826
          ],
          [
            -118.72135601678627,
            37.48028123348951
          ],
          [
            -118.72134090636962,
            37.4802544168229
          ],
          [
            -118.7213522876196,
            37.48021143869795
          ],
          [
            -118.72135302303627,
            37.48016636578137
          ],
          [
            -118.7213763199112,
            37.480134483489735
          ],
          [
            -118.72133087199461,
            37.480002204323284
          ],
          [
            -118.72140451157787,
            37.48000789182328
          ],
          [
            -118.72149120011937,
            37.47979708557364
          ],
          [
            -118.72152391991102,
            37.47972901578203
          ],
          [
            -118.72154861991095,
            37.47968133869881
          ],
          [
            -118.72163847928584,
            37.47954709078232
          ],
          [
            -118.72167529907745,
            37.47950374599071
          ],
          [
            -118.72162032407749,
            37.478864641825055
          ],
          [
            -118.72155721574427,
            37.47882500224176
          ],
          [
            -118.7214617313694,
            37.478745278283554
          ],
          [
            -118.7214499490778,
            37.47861701786712
          ],
          [
            -118.72145632511945,
            37.47855608870054
          ],
          [
            -118.72155186157761,
            37.47846907515901
          ],
          [
            -118.72158812095256,
            37.47841672620075
          ],
          [
            -118.72162766157749,
            37.47836883349248
          ],
          [
            -118.7214887844944,
            37.47821538661776
          ],
          [
            -118.72155341782764,
            37.47766015745191
          ],
          [
            -118.72151539491102,
            37.477620154326985
          ],
          [
            -118.72152067199431,
            37.47758853453536
          ],
          [
            -118.72131331470297,
            37.47753071891049
          ],
          [
            -118.72132106991131,
            37.4774990605772
          ],
          [
            -118.72134526157794,
            37.477444631410606
          ],
          [
            -118.7213457938696,
            37.477406317869
          ],
          [
            -118.72129968866136,
            37.477352916827385
          ],
          [
            -118.7212770511614,
            37.47730592828583
          ],
          [
            -118.72133542824463,
            37.47727803766088
          ],
          [
            -118.72136431053622,
            37.47721227411927
          ],
          [
            -118.72140344907785,
            37.477177908494355
          ],
          [
            -118.72145475532778,
            37.47713435328609
          ],
          [
            -118.72150479074435,
            37.4770817991195
          ],
          [
            -118.72154388345263,
            37.4770451814112
          ],
          [
            -118.72147570428609,
            37.476969563702994
          ],
          [
            -118.72152705636933,
            37.47692825953641
          ],
          [
            -118.72167128032743,
            37.4766377512035
          ],
          [
            -118.72169205116074,
            37.47658788037029
          ],
          [
            -118.72169363241073,
            37.47653377932869
          ],
          [
            -118.72171908970233,
            37.47648834391208
          ],
          [
            -118.72173808970234,
            37.47634611995397
          ],
          [
            -118.72172101470238,
            37.47623370745413
          ],
          [
            -118.72174369491063,
            37.47617479391255
          ],
          [
            -118.72161433970251,
            37.476082041829386
          ],
          [
            -118.72161143553586,
            37.47603251474612
          ],
          [
            -118.72161698345252,
            37.47593554703792
          ],
          [
            -118.72158857199423,
            37.475852594954745
          ],
          [
            -118.72148425220274,
            37.475757226204905
          ],
          [
            -118.7215826240776,
            37.475332195997225
          ],
          [
            -118.7215506063693,
            37.47512311474753
          ],
          [
            -118.72156757199429,
            37.47504625849763
          ],
          [
            -118.72161306991086,
            37.47501179912268
          ],
          [
            -118.72166723866076,
            37.47486229808129
          ],
          [
            -118.72171173345237,
            37.47483010641463
          ],
          [
            -118.72174498866065,
            37.47473949495645
          ],
          [
            -118.72178775011889,
            37.47458565641506
          ],
          [
            -118.72178767928557,
            37.474551860581755
          ],
          [
            -118.72182827824383,
            37.47450395224848
          ],
          [
            -118.72185045220215,
            37.47410031058246
          ],
          [
            -118.72178131574395,
            37.473936832457696
          ],
          [
            -118.72179803970226,
            37.47388025849949
          ],
          [
            -118.7218131407439,
            37.47372231474969
          ],
          [
            -118.72186808970213,
            37.47352999391666
          ],
          [
            -118.72197373345199,
            37.47346762204177
          ],
          [
            -118.72198890220193,
            37.47343585641681
          ],
          [
            -118.72205530741019,
            37.47341911787515
          ],
          [
            -118.72227420115985,
            37.47319511579218
          ],
          [
            -118.72236103449302,
            37.47316005537556
          ],
          [
            -118.72234348761805,
            37.47310398141735
          ],
          [
            -118.72243844803455,
            37.47289981266766
          ],
          [
            -118.72249550220113,
            37.47286067516774
          ],
          [
            -118.7225572001177,
            37.4728237241261
          ],
          [
            -118.72260466574267,
            37.47278247620949
          ],
          [
            -118.72278615115903,
            37.47271449079295
          ],
          [
            -118.72273876157578,
            37.472620546001394
          ],
          [
            -118.72273504803411,
            37.4725665272515
          ],
          [
            -118.72276541782571,
            37.47255031162655
          ],
          [
            -118.72274460949245,
            37.47252132308489
          ],
          [
            -118.7227280365758,
            37.47249227100161
          ],
          [
            -118.72280508657565,
            37.47238525016843
          ],
          [
            -118.72287458032554,
            37.472303123085226
          ],
          [
            -118.72303775428367,
            37.47216105121049
          ],
          [
            -118.7231221417835,
            37.471835360586
          ],
          [
            -118.72318982615843,
            37.47176678141943
          ],
          [
            -118.72331585949155,
            37.47180775329434
          ],
          [
            -118.72336098136645,
            37.47172598246112
          ],
          [
            -118.72341671990807,
            37.47169137308617
          ],
          [
            -118.72348004074126,
            37.47166340954459
          ],
          [
            -118.72368468865761,
            37.47160409600298
          ],
          [
            -118.72375805636585,
            37.47158275121137
          ],
          [
            -118.7236335855327,
            37.471210534545264
          ],
          [
            -118.7237410428242,
            37.4709047887124
          ],
          [
            -118.72370895324093,
            37.47083090329585
          ],
          [
            -118.72374180636587,
            37.470400063713214
          ],
          [
            -118.72379572407414,
            37.47043983454648
          ],
          [
            -118.72389510011567,
            37.47045866683811
          ],
          [
            -118.72400065636549,
            37.4703467220466
          ],
          [
            -118.72414916365693,
            37.470258934546735
          ],
          [
            -118.72426325844839,
            37.47018649079689
          ]
        ]
      }
    },
    {
      "type": "Feature",
      "properties": {
        "feature_id": "{BD9384D8-3127-4D1D-B15C-3DC2412B3D5C}",
        "name": "UPPER ROCK CREEK CANYON",
        "distance_miles": 0.57909063,
        "source_originator": "U.S. Forest Service",
        "source_dataset_id": "{8CC4DB36-D0BE-4189-88C7-64C3569EB754}",
        "source_feature_id": "2773",
        "source_data_description": "USFS Trails Update 03/2026",
        "source_edit_date": 1774742400000,
        "load_date": 1777310283000,
        "trail_type": "Terra Trail",
        "trail_surface": "Unpaved Native"
      },
      "geometry": {
        "type": "LineString",
        "coordinates": [
          [
            -118.71750136887556,
            37.49270500638693
          ],
          [
            -118.7175421417922,
            37.49267962930361
          ],
          [
            -118.71759649283376,
            37.49264504492868
          ],
          [
            -118.71764896887532,
            37.49260597722042
          ],
          [
            -118.71772528137524,
            37.4925890959704
          ],
          [
            -118.71774864075019,
            37.49255946367879
          ],
          [
            -118.71778361262511,
            37.49254318242885
          ],
          [
            -118.7178094782501,
            37.49248422617893
          ],
          [
            -118.71800881366647,
            37.49237543034576
          ],
          [
            -118.71787780637499,
            37.49225791576259
          ],
          [
            -118.7179368084582,
            37.492241285554314
          ],
          [
            -118.71795395012487,
            37.49220273138769
          ],
          [
            -118.71795102304156,
            37.49210588763782
          ],
          [
            -118.71796972512482,
            37.49205829909624
          ],
          [
            -118.71798030845815,
            37.49202660013799
          ],
          [
            -118.71800280949981,
            37.49200599597134
          ],
          [
            -118.71801544804146,
            37.49194046680475
          ],
          [
            -118.71803606366643,
            37.491883838679826
          ],
          [
            -118.7180480938747,
            37.49182283034662
          ],
          [
            -118.71805432720805,
            37.49177091368
          ],
          [
            -118.71804171158306,
            37.49168322201348
          ],
          [
            -118.71803846470806,
            37.4916494740969
          ],
          [
            -118.71802910429142,
            37.491611305346964
          ],
          [
            -118.71801362408308,
            37.49155294909701
          ],
          [
            -118.7180123407498,
            37.4915124105554
          ],
          [
            -118.71800217616646,
            37.49146974909718
          ],
          [
            -118.7179997844998,
            37.49144274180554
          ],
          [
            -118.71798855533314,
            37.49140009701392
          ],
          [
            -118.71798381887481,
            37.49131680013909
          ],
          [
            -118.71796894699986,
            37.49125392618083
          ],
          [
            -118.71795766574985,
            37.491209025139256
          ],
          [
            -118.71793151679157,
            37.49111702201435
          ],
          [
            -118.71794486158319,
            37.49105148555617
          ],
          [
            -118.71795285116656,
            37.49098377722294
          ],
          [
            -118.71796599283317,
            37.490925005348004
          ],
          [
            -118.71799297095816,
            37.490868283473105
          ],
          [
            -118.71802888449974,
            37.49081593451484
          ],
          [
            -118.7180676751247,
            37.490765803264935
          ],
          [
            -118.71811672199959,
            37.490731292848295
          ],
          [
            -118.71821169908281,
            37.490603733473506
          ],
          [
            -118.71826973554107,
            37.49048347201534
          ],
          [
            -118.71827139595769,
            37.490370788682185
          ],
          [
            -118.71826737304104,
            37.49030325430732
          ],
          [
            -118.71830580116597,
            37.49023734909906
          ],
          [
            -118.71831303554097,
            37.49018317097415
          ],
          [
            -118.71832310012428,
            37.49011317409929
          ],
          [
            -118.7183191751243,
            37.49005014180767
          ],
          [
            -118.7183098063743,
            37.489996201182805
          ],
          [
            -118.71826616574941,
            37.48994276264119
          ],
          [
            -118.71828012304104,
            37.48988848139129
          ],
          [
            -118.71825878449937,
            37.48982119284972
          ],
          [
            -118.71824633137442,
            37.48975603243315
          ],
          [
            -118.71823185845778,
            37.48969541055823
          ],
          [
            -118.71821275012445,
            37.489632598058336
          ],
          [
            -118.71820483762446,
            37.48956511472511
          ],
          [
            -118.71814956470791,
            37.489466780350256
          ],
          [
            -118.71817387304117,
            37.489432630350336
          ],
          [
            -118.7181657772079,
            37.489387682433744
          ],
          [
            -118.71815722824954,
            37.48935401055877
          ],
          [
            -118.71825141887439,
            37.48926927097557
          ],
          [
            -118.71816709491623,
            37.48921416576735
          ],
          [
            -118.71808319283298,
            37.489192857434034
          ],
          [
            -118.7180279959581,
            37.48905170847593
          ],
          [
            -118.71799718033316,
            37.48900258555932
          ],
          [
            -118.71797396470816,
            37.48891505014279
          ],
          [
            -118.71794637929156,
            37.48886813347622
          ],
          [
            -118.71795169804153,
            37.48871483868476
          ],
          [
            -118.71796090324983,
            37.48865386889321
          ],
          [
            -118.71799610429144,
            37.48860153555995
          ],
          [
            -118.71799764283315,
            37.48854518451839
          ],
          [
            -118.7180143209581,
            37.48848635535177
          ],
          [
            -118.71802190949978,
            37.48843217201852
          ],
          [
            -118.71802657408307,
            37.48837351785198
          ],
          [
            -118.71804012929141,
            37.48833276368538
          ],
          [
            -118.71805197408304,
            37.48829428868544
          ],
          [
            -118.71806158345805,
            37.48823556681049
          ],
          [
            -118.71808525429134,
            37.48814284389397
          ],
          [
            -118.71811005220798,
            37.48806812514408
          ],
          [
            -118.71813945637456,
            37.487932506394316
          ],
          [
            -118.71813216054124,
            37.487876284519416
          ],
          [
            -118.71809413762463,
            37.48775967306125
          ],
          [
            -118.71804027095806,
            37.48773792410293
          ],
          [
            -118.71803876366641,
            37.4876568303531
          ],
          [
            -118.71808165324967,
            37.487539040769946
          ],
          [
            -118.71813946054124,
            37.487270075145375
          ],
          [
            -118.71814034804123,
            37.48723175639543
          ],
          [
            -118.71813190116626,
            37.48720258660376
          ],
          [
            -118.71817928449951,
            37.487080227229
          ],
          [
            -118.71830371783267,
            37.48672691993784
          ],
          [
            -118.7183567042909,
            37.48669460535456
          ],
          [
            -118.71841958658246,
            37.48667791993796
          ],
          [
            -118.71856447824894,
            37.48653836993816
          ],
          [
            -118.71859416574887,
            37.48646133347995
          ],
          [
            -118.71857483658226,
            37.486373739730084
          ],
          [
            -118.71855836158227,
            37.4863334220218
          ],
          [
            -118.71851524074901,
            37.48621012098033
          ],
          [
            -118.71851173033235,
            37.48616510848041
          ],
          [
            -118.71849566991568,
            37.48605043035559
          ],
          [
            -118.71854231054061,
            37.485957373064025
          ],
          [
            -118.71852573554065,
            37.48583593973092
          ],
          [
            -118.71852873866567,
            37.48578182202266
          ],
          [
            -118.71858129283225,
            37.48560756264794
          ],
          [
            -118.71851706262402,
            37.48547330431478
          ],
          [
            -118.71849941783233,
            37.48541272306488
          ],
          [
            -118.71849535220736,
            37.48517394702361
          ],
          [
            -118.71854217199893,
            37.48513496264866
          ],
          [
            -118.71857057720723,
            37.485109764732044
          ],
          [
            -118.71859209908223,
            37.485104801190346
          ]
        ]
      }
    }
  ]
}
