{
  "features": [
    {
      "geometry": {
        "coordinates": [
          [
            -118.8543469528832,
            37.58914937464098
          ],
          [
            -118.85430940993368,
            37.58918309466949
          ],
          [
            -118.85431690098484,
            37.58918989335139
          ],
          [
            -118.85434037575983,
            37.589211190569
          ],
          [
            -118.8543574599199,
            37.58924459670079
          ],
          [
            -118.85435747159801,
            37.5892799005522
          ],
          [
            -118.85434485116657,
            37.58930982866083
          ],
          [
            -118.85432314427605,
            37.58934102594656
          ],
          [
            -118.85429047344749,
            37.58937572469883
          ],
          [
            -118.85424370176389,
            37.58940880616354
          ],
          [
            -118.85419196239681,
            37.589446219791824
          ],
          [
            -118.85413523917649,
            37.58948717046706
          ],
          [
            -118.85406442767761,
            37.58953728232056
          ],
          [
            -118.8540581152161,
            37.58954174974023
          ],
          [
            -118.85400258406017,
            37.58960102488548
          ],
          [
            -118.85395346058718,
            37.5896468393754
          ],
          [
            -118.8538865765227,
            37.58971417371187
          ],
          [
            -118.85381454780658,
            37.58978594549586
          ],
          [
            -118.85372888535942,
            37.589862741256525
          ],
          [
            -118.8536355090789,
            37.5899394707385
          ],
          [
            -118.85354630996443,
            37.59001069776184
          ],
          [
            -118.8534591688903,
            37.59007517380859
          ],
          [
            -118.85336374894251,
            37.59013384632902
          ],
          [
            -118.85325455692309,
            37.590185334406584
          ],
          [
            -118.85313500912508,
            37.59022952558872
          ],
          [
            -118.85300787146122,
            37.590267978060204
          ],
          [
            -118.85300172878132,
            37.59026975831947
          ],
          [
            -118.85298046251162,
            37.59027591718758
          ],
          [
            -118.85298200177768,
            37.59027930167576
          ]
        ],
        "type": "LineString"
      },
      "properties": {
        "derivation": "geometry-derived shortest connected turnaround arm plus clipped Convict Lake Road",
        "distance_miles": 0.11488317,
        "feature_id": "route-segment-convict-lake-loop-east-south-road-link",
        "source_feature_ids": [
          "{100A9E18-858D-4675-8761-0913B9EBCD61}",
          "{DEA2ABAC-4A4F-4E76-A030-CA8BBA300F15}"
        ]
      },
      "type": "Feature"
    },
    {
      "geometry": {
        "coordinates": [
          [
            -118.85298200177768,
            37.59027930167576
          ],
          [
            -118.85296449990098,
            37.59031562791957
          ],
          [
            -118.85293279206641,
            37.590349920481074
          ],
          [
            -118.852869871369,
            37.59039597083353
          ],
          [
            -118.85284289675762,
            37.59042117700798
          ],
          [
            -118.85280686533156,
            37.59046680093785
          ],
          [
            -118.85279191197536,
            37.59049181845683
          ],
          [
            -118.8527708913977,
            37.59051467916306
          ],
          [
            -118.85272922124662,
            37.59054687675747
          ],
          [
            -118.85270447176222,
            37.5905765559329
          ],
          [
            -118.85268108681876,
            37.59060395942147
          ],
          [
            -118.85264630315262,
            37.59064280746888
          ],
          [
            -118.85258513776326,
            37.590702344396895
          ],
          [
            -118.85254343078124,
            37.59071877094586
          ],
          [
            -118.85250704541897,
            37.59072159685007
          ],
          [
            -118.85248235791835,
            37.59075352386555
          ],
          [
            -118.85244744309817,
            37.59080138624641
          ],
          [
            -118.85237691097535,
            37.59085431314881
          ],
          [
            -118.85230224570385,
            37.590954618974976
          ],
          [
            -118.85230265443732,
            37.59099967739915
          ],
          [
            -118.85228994147943,
            37.59102916776389
          ],
          [
            -118.85224497181629,
            37.59109971467666
          ],
          [
            -118.85222331972301,
            37.59115413047452
          ],
          [
            -118.85220395474042,
            37.59121526856585
          ],
          [
            -118.85218159567299,
            37.591269689261864
          ],
          [
            -118.85214361041122,
            37.591322109735124
          ],
          [
            -118.85209409796772,
            37.59135217155444
          ],
          [
            -118.85207919940873,
            37.591379444496525
          ],
          [
            -118.85205194092973,
            37.59143619980216
          ],
          [
            -118.85204818058193,
            37.59147005408581
          ],
          [
            -118.85203279872934,
            37.59150634700528
          ],
          [
            -118.8520153759044,
            37.59153140332424
          ],
          [
            -118.85200300700129,
            37.59156088564838
          ],
          [
            -118.85198209871302,
            37.59158825247242
          ],
          [
            -118.85193314681824,
            37.59164083857206
          ],
          [
            -118.85190899651015,
            37.591666000904766
          ],
          [
            -118.8518849557965,
            37.591695668956795
          ],
          [
            -118.85182865208947,
            37.59173710598073
          ],
          [
            -118.85177033166457,
            37.591783084294356
          ],
          [
            -118.85172558478364,
            37.591819832615855
          ],
          [
            -118.85166315276972,
            37.59185686136992
          ],
          [
            -118.85162430961684,
            37.5918890135401
          ],
          [
            -118.85158502000125,
            37.59190314497323
          ],
          [
            -118.85154431733572,
            37.5919173020286
          ],
          [
            -118.85148824719064,
            37.59195422823457
          ],
          [
            -118.85145765596197,
            37.591990759371775
          ],
          [
            -118.85143384342041,
            37.592029435862756
          ],
          [
            -118.85142030311411,
            37.59205443150242
          ],
          [
            -118.85140449186679,
            37.592101994801844
          ],
          [
            -118.8513700666285,
            37.592140833525654
          ],
          [
            -118.85134928769763,
            37.59220199358399
          ],
          [
            -118.85131902974395,
            37.592252034565014
          ],
          [
            -118.85121469850853,
            37.592440679123065
          ],
          [
            -118.85119279668358,
            37.59249960104328
          ],
          [
            -118.85117861138691,
            37.592569671081776
          ],
          [
            -118.851175671201,
            37.5926080155747
          ],
          [
            -118.85117551848741,
            37.592673361321374
          ],
          [
            -118.85117516634782,
            37.592716175125354
          ],
          [
            -118.85115475662457,
            37.592763808469584
          ],
          [
            -118.8511535133562,
            37.592813396371426
          ],
          [
            -118.85117024896996,
            37.592860450252914
          ],
          [
            -118.85120602347783,
            37.59291846786289
          ],
          [
            -118.85121328276362,
            37.59295440773836
          ],
          [
            -118.85121816420887,
            37.593008402222374
          ],
          [
            -118.85123214738461,
            37.593044233861995
          ],
          [
            -118.8512317584141,
            37.59307127627511
          ],
          [
            -118.85123028787197,
            37.59311185411223
          ],
          [
            -118.85123101550735,
            37.593141133661504
          ],
          [
            -118.85123592929196,
            37.59316809275986
          ],
          [
            -118.8512376594472,
            37.59319510665632
          ],
          [
            -118.85125775296346,
            37.593248866074845
          ],
          [
            -118.85126706400136,
            37.59329603143206
          ],
          [
            -118.85126292905615,
            37.593343411719864
          ],
          [
            -118.85126537247372,
            37.59337041345228
          ],
          [
            -118.85127320937625,
            37.59341535012149
          ],
          [
            -118.85127635347973,
            37.593442341151
          ],
          [
            -118.85127907717165,
            37.59348060120321
          ],
          [
            -118.85128080912352,
            37.59350761000373
          ],
          [
            -118.851283639715,
            37.59355037350264
          ],
          [
            -118.8512870083973,
            37.59358637215133
          ],
          [
            -118.85129656198036,
            37.59362903026049
          ],
          [
            -118.85127527999298,
            37.59371273065128
          ],
          [
            -118.85127818424627,
            37.59374422432959
          ],
          [
            -118.8512842514677,
            37.593789192091634
          ],
          [
            -118.85129669493104,
            37.59383406088842
          ],
          [
            -118.85133058657006,
            37.59388760203936
          ],
          [
            -118.85135145982399,
            37.59393008558879
          ],
          [
            -118.85135399217481,
            37.59397510448695
          ],
          [
            -118.85134663766756,
            37.59400676389977
          ],
          [
            -118.85132808925356,
            37.594029586513585
          ],
          [
            -118.85129188804594,
            37.59406845626164
          ],
          [
            -118.85131548589015,
            37.594106390707466
          ],
          [
            -118.85133166454841,
            37.59413092227943
          ],
          [
            -118.85138209237519,
            37.59420899120407
          ],
          [
            -118.85140797912673,
            37.59425364407815
          ],
          [
            -118.85145227774832,
            37.594327305531436
          ],
          [
            -118.85147311506968,
            37.59435401365355
          ],
          [
            -118.85150998282724,
            37.594384980343555
          ],
          [
            -118.85154884664136,
            37.594424927539734
          ],
          [
            -118.85158434267153,
            37.59447168714948
          ],
          [
            -118.85163847245559,
            37.594513646496566
          ],
          [
            -118.85167938622521,
            37.59456482975021
          ],
          [
            -118.8517033487854,
            37.594589236609984
          ],
          [
            -118.85175619577528,
            37.59462220472
          ]
        ],
        "type": "LineString"
      },
      "properties": {
        "derivation": "unmodified USGS trail feature",
        "distance_miles": 0.3459521,
        "feature_id": "route-segment-convict-lake-loop-east-shore-trail",
        "source_feature_ids": [
          "{03B23C3E-B3C4-4466-88C4-D794CF42ACA4}"
        ]
      },
      "type": "Feature"
    },
    {
      "geometry": {
        "coordinates": [
          [
            -118.85175619577528,
            37.59462220472
          ],
          [
            -118.85175290866215,
            37.59463383892374
          ],
          [
            -118.85177744272836,
            37.59463825245015
          ],
          [
            -118.85190474478391,
            37.59479874735553
          ],
          [
            -118.8519387514073,
            37.59481398647059
          ],
          [
            -118.85197846951928,
            37.594831386532526
          ],
          [
            -118.85202243666254,
            37.59484872608948
          ],
          [
            -118.85206852113492,
            37.594866028630115
          ],
          [
            -118.85211501973069,
            37.5948855739692
          ],
          [
            -118.85216081314893,
            37.594905137097555
          ],
          [
            -118.85220730815138,
            37.59492468812055
          ],
          [
            -118.85225527818757,
            37.59494646272122
          ],
          [
            -118.85230325002036,
            37.59496824443319
          ],
          [
            -118.85235086073043,
            37.59499002969768
          ],
          [
            -118.8523974734122,
            37.59501408124295
          ],
          [
            -118.85244296230157,
            37.59503590137091
          ],
          [
            -118.85248810444119,
            37.595057724339576
          ],
          [
            -118.85253165835944,
            37.59507281606458
          ],
          [
            -118.85257303565974,
            37.59508568136098
          ],
          [
            -118.85261329455751,
            37.595096318806256
          ],
          [
            -118.85265556568152,
            37.59510241798714
          ],
          [
            -118.85267084422789,
            37.595097044814494
          ],
          [
            -118.8527680884327,
            37.59506284646732
          ],
          [
            -118.85276363557385,
            37.5950547846918
          ]
        ],
        "type": "LineString"
      },
      "properties": {
        "derivation": "clipped Convict Lake Boat Launch road between official trail endpoints",
        "distance_miles": 0.06898757,
        "feature_id": "route-segment-convict-lake-loop-east-north-road-link",
        "source_feature_ids": [
          "{576EBAE7-DF76-4441-9EBB-99A86B28193C}"
        ]
      },
      "type": "Feature"
    }
  ],
  "type": "FeatureCollection",
  "wayproof": {
    "classification": "public_domain",
    "derivation_note": "Road features are clipped at source trail endpoints. The shorter of two nearly equal cul-de-sac arms is retained and remains explicitly qualified in canonical knowledge.",
    "east_trail_source_published_length_miles": 0.34564349,
    "normalized_coordinate_reference_system": "EPSG:4326",
    "selection": "Convict Lake road and trail features supporting the official mapped loop closure",
    "source_id": "source-usgs-national-map-transportation-convict-20260925",
    "source_layers": {
      "local_roads": 32,
      "trails": 37
    },
    "source_retrieved_at": "2026-09-25T11:00:00+00:00",
    "source_service": "USGS The National Map transportation MapServer"
  }
}
